ID,Name,Description,Organization,Organization_Type,Address,Suburb,City,State,Postcode,Phone,Email,Website,Categories,Youth_Specific,Indigenous_Specific,Data_Source,Status,Latitude,Longitude
ffa187e4-0311-4656-889c-bbfe95d77464,"Sydney Family Violence Service","Professional parenting assistance available to young people in the Sydney and surrounding areas region.","Sydney Mission Australia",government,"518 Bourke St",Sydney,Sydney,NSW,2000,(02) 9430 8828,support@sydneymissionaustral.gov.au,https://www.sydneymissionaustral.gov.au,"parenting",true,false,Data.VIC,active,-33.86353046278843,151.20558336407885
08c5c2ed-e106-4c51-b935-ab68201cc6ce,"Sydney Crisis Support Service","Dedicated education support services designed for young people living in Sydney and surrounding areas.","Sydney Community Centre",university,"769 Church St",Sydney,Sydney,NSW,2000,(02) 1648 7879,support@sydneycommunitycentr.org.au,https://www.sydneycommunitycentr.org.au,"education_support",true,false,Data.NSW,active,-33.874618045536764,151.2025881109928
0794fe20-bd29-486d-b67a-ed97e664a79a,"Sydney Emergency Relief Centre","Comprehensive education support support for young people throughout Sydney and surrounding areas.","Sydney YMCA",charity,"287 Main St",Sydney,Sydney,NSW,2000,(02) 1543 1477,info@sydneyymca.com.au,https://www.sydneyymca.com.au,"education_support, apprenticeships, medical",true,false,Data.ACT,active,-33.87557768436912,151.20462784222957
964c5a21-c3a8-42b8-8c7b-86385eb35cee,"Sydney Youth Counselling Service","Community-based domestic violence program serving young people across Sydney and surrounding areas.","Beyond Blue Sydney",school,"105 Queen St",Sydney,Sydney,NSW,2000,(02) 3403 4988,help@beyondbluesydney.gov.au,https://www.beyondbluesydney.gov.au,"domestic_violence",true,false,Data.QLD,active,-33.876965600389944,151.20358406216482
74a8d091-a25b-4cfd-adab-6d739399afc2,"Sydney Drug & Alcohol Support","Dedicated arts culture services designed for community members living in Sydney and surrounding areas.","Sydney Youth Services",commercial,"931 Collins St",Sydney,Sydney,NSW,2000,(02) 5507 0116,help@sydneyyouthservices.org.au,https://www.sydneyyouthservices.org.au,"arts_culture, health_services",false,false,Ask Izzy,active,-33.866824336104834,151.2105172522976
bf57758b-acea-491d-a9da-8ba1c3c1c429,"Sydney Youth Arts Program","Comprehensive literacy support for young people throughout Sydney and surrounding areas.","Lifeline Sydney",government,"325 High St",Sydney,Sydney,NSW,2000,(02) 6711 8874,services@lifelinesydney.org.au,https://www.lifelinesydney.com.au,"literacy, emergency_relief, multicultural",true,false,Data.NSW,active,-33.87512997492997,151.19945535786604
843548de-ef97-47fa-809b-7e67cbb31b6c,"Sydney Educational Support Centre","Providing legal aid services to community members in Sydney and surrounding areas.","Sydney Neighbourhood Centre",community,"778 Church St",Sydney,Sydney,NSW,2000,(02) 7688 2077,contact@sydneyneighbourhoodc.com.au,https://www.sydneyneighbourhoodc.gov.au,"legal_aid, financial_assistance, victim_support",false,false,Data.QLD,active,-33.872032402870815,151.20341047196126
d90c3fd9-b7df-4f48-ac4b-976c90b74a6f,"Sydney Homeless Youth Outreach","Community-based drug alcohol program serving young people across Sydney and surrounding areas.","Sydney Youth Services",community,"708 Collins St",Sydney,Sydney,NSW,2000,(02) 4007 1647,services@sydneyyouthservices.org.au,https://www.sydneyyouthservices.gov.au,"drug_alcohol, vocational_education",true,true,Adelaide Council,active,-33.8690134697875,151.20507525274843
d487b76e-e61e-4273-9fab-2d37f5b3b45b,"Sydney Youth Legal Service","Dedicated volunteer programs services designed for young people living in Sydney and surrounding areas.","Sydney YMCA",hospital,"178 George St",Sydney,Sydney,NSW,2000,(02) 2668 7794,help@sydneyymca.org.au,https://www.sydneyymca.com.au,"volunteer_programs",true,false,Data.ACT,active,-33.870596700762356,151.2062706606418
f7c68612-3ac8-4593-b1c2-b6421da3879a,"Sydney Multicultural Youth Services","Community-based family support program serving young people across Sydney and surrounding areas.","Beyond Blue Sydney",hospital,"553 King St",Sydney,Sydney,NSW,2000,(02) 5062 5267,info@beyondbluesydney.gov.au,https://www.beyondbluesydney.com.au,"family_support",true,false,Data.VIC,active,-33.868060896291055,151.20786621165854
1b86ff27-18bf-40a6-9211-7b667c65a4cf,"Sydney Community Mental Health","Dedicated literacy services designed for community members living in Sydney and surrounding areas.","Sydney Community Centre",community,"669 Collins St",Sydney,Sydney,NSW,2000,(02) 6751 2252,support@sydneycommunitycentr.org.au,https://www.sydneycommunitycentr.org.au,"literacy",false,false,Data.VIC,active,-33.87314500915791,151.20542682049071
baa6ce45-a1b7-4be2-bf7a-87c649bcecc0,"Sydney Family Violence Service 99","Comprehensive indigenous services support for community members throughout Sydney and surrounding areas.","Sydney Family Services",indigenous,"853 High St",Sydney,Sydney,NSW,2000,(02) 3398 2429,support@sydneyfamilyservices.org.au,https://www.sydneyfamilyservices.org.au,"indigenous_services, apprenticeships",false,true,Brisbane Council,active,-33.8717643101072,151.2064050712071
cc4d1b66-fed4-46d0-bcf6-880312ff6345,"Sydney Youth Counselling Service 79","Providing centrelink services to young people in Sydney and surrounding areas.","Sydney Youth Services",indigenous,"911 George St",Sydney,Sydney,NSW,2000,(02) 2794 6411,support@sydneyyouthservices.gov.au,https://www.sydneyyouthservices.gov.au,"centrelink, sports_recreation, job_placement",true,false,Data.VIC,active,-33.86338698051211,151.2169863150802
56d34d6a-b386-4e99-b3ae-a4d24cc1c134,"Sydney Drug & Alcohol Support 75","Professional drug alcohol assistance available to young people in the Sydney and surrounding areas region.","Beyond Blue Sydney",hospital,"333 Bourke St",Sydney,Sydney,NSW,2000,(02) 6806 6075,info@beyondbluesydney.org.au,https://www.beyondbluesydney.com.au,"drug_alcohol, volunteer_programs",true,false,Find & Connect,active,-33.86533951771238,151.2057217869133
3f082872-7e81-45ff-9073-4399fa186f19,"Sydney Youth Development Program","Providing drug alcohol services to young people in Sydney and surrounding areas.","Sydney Mission Australia",university,"841 Queen St",Sydney,Sydney,NSW,2000,(02) 2025 1654,support@sydneymissionaustral.gov.au,https://www.sydneymissionaustral.com.au,"drug_alcohol",true,false,Data.ACT,active,-33.876816046577005,151.20430829142052
d48e9544-b33c-401d-9cf1-7a502e6e6310,"Melbourne Youth Justice Support","Community-based family support program serving young people across Melbourne and surrounding areas.","Melbourne Youth Services",government,"284 Main St",Melbourne,Melbourne,VIC,3000,(03) 7352 2429,info@melbourneyouthservic.gov.au,https://www.melbourneyouthservic.gov.au,"family_support, suicide_prevention",true,false,Brisbane Council,active,-37.821718389740184,144.95509412457363
f6b42162-c61e-40af-8ac7-685c73a70e08,"Melbourne Youth Mentoring Program","Professional career guidance assistance available to young people in the Melbourne and surrounding areas region.","Melbourne Youth Services",non_profit,"424 Church St",Melbourne,Melbourne,VIC,3000,(03) 8034 2586,support@melbourneyouthservic.gov.au,https://www.melbourneyouthservic.gov.au,"career_guidance, medical, drug_alcohol",true,true,Australian Charities Register,active,-37.81408392244729,144.96260185018556
e725b47f-1b1c-4a15-bd00-aa64e25a646c,"Melbourne Community Mental Health","Professional leadership assistance available to young people in the Melbourne and surrounding areas region.","Melbourne Community Centre",commercial,"425 King St",Melbourne,Melbourne,VIC,3000,(03) 4191 2907,contact@melbournecommunityce.com.au,https://www.melbournecommunityce.com.au,"leadership, vocational_education",true,false,Data.SA,active,-37.80689194343617,144.97066122987292
5f6a1240-7510-45fc-aaee-8fd498627694,"Melbourne Community Legal Centre","Comprehensive training support for young people throughout Melbourne and surrounding areas.","Beyond Blue Melbourne",community,"362 Main St",Melbourne,Melbourne,VIC,3000,(03) 6307 3576,contact@beyondbluemelbourne.org.au,https://www.beyondbluemelbourne.org.au,"training, sports_recreation, court_support",true,false,Data.VIC,active,-37.81876843360527,144.96626264962424
5edd5bb3-0a9b-4656-a20b-0c4ac54a7149,"Melbourne Educational Support Centre","Community-based community development program serving young people across Melbourne and surrounding areas.","Melbourne Mission Australia",commercial,"977 George St",Melbourne,Melbourne,VIC,3000,(03) 5207 3212,services@melbournemissionaust.org.au,https://www.melbournemissionaust.org.au,"community_development, transitional_housing, job_placement",true,false,Perth Council,active,-37.82149727845157,144.96666981272227
b22c4b16-4810-4bbf-9ed5-cbcf201231d9,"Melbourne Multicultural Youth Services","Comprehensive drug alcohol support for young people throughout Melbourne and surrounding areas.","Beyond Blue Melbourne",university,"249 Queen St",Melbourne,Melbourne,VIC,3000,(03) 9421 0342,support@beyondbluemelbourne.org.au,https://www.beyondbluemelbourne.gov.au,"drug_alcohol",true,false,List Tasmania,active,-37.81624921709065,144.96966333466372
9bbf3fdd-ce7e-438b-9a3f-120c370a42de,"Melbourne Family Violence Service","Professional literacy assistance available to young people in the Melbourne and surrounding areas region.","Melbourne Neighbourhood Centre",community,"577 Bourke St",Melbourne,Melbourne,VIC,3000,(03) 9344 3798,support@melbourneneighbourho.com.au,https://www.melbourneneighbourho.org.au,"literacy, family_mediation, homelessness",true,true,Data.WA,active,-37.80783152437771,144.96416281490693
82cec2df-33d6-498b-aa9e-ff610f56a912,"Melbourne Youth Justice Support 2","Professional mentoring assistance available to young people in the Melbourne and surrounding areas region.","Melbourne Family Services",school,"169 High St",Melbourne,Melbourne,VIC,3000,(03) 2620 5084,support@melbournefamilyservi.gov.au,https://www.melbournefamilyservi.org.au,"mentoring, centrelink",true,false,Data.gov.au,active,-37.82147345504397,144.96164088325057
4b3d394b-7fb7-4fd9-a4b0-d870c6644772,"Melbourne Community Legal Centre 54","Comprehensive refugee services support for community members throughout Melbourne and surrounding areas.","Melbourne Health Service",school,"812 Queen St",Melbourne,Melbourne,VIC,3000,(03) 6324 3759,contact@melbournehealthservi.com.au,https://www.melbournehealthservi.com.au,"refugee_services, cultural_support",false,true,Adelaide Council,active,-37.8173324885467,144.9680164701896
e8acf645-3df5-47f6-8782-320af407d31e,"Melbourne Educational Support Centre 41","Community-based health services program serving community members across Melbourne and surrounding areas.","Melbourne Youth Services",university,"418 King St",Melbourne,Melbourne,VIC,3000,(03) 1809 7747,contact@melbourneyouthservic.com.au,https://www.melbourneyouthservic.com.au,"health_services, centrelink",false,false,Data.gov.au,active,-37.81931081076303,144.95784645350483
438e3845-da75-4092-9115-8e6eaaafd5e3,"Melbourne Youth Arts Program","Comprehensive arts culture support for young people throughout Melbourne and surrounding areas.","Melbourne Community Centre",indigenous,"926 Bourke St",Melbourne,Melbourne,VIC,3000,(03) 6911 9564,contact@melbournecommunityce.org.au,https://www.melbournecommunityce.gov.au,"arts_culture, community_service",true,false,Brisbane Council,active,-37.80553989820488,144.9629798468307
c0980160-df9a-42b7-9cca-9f6b939265ba,"Melbourne Youth Counselling Service","Comprehensive community service support for young people throughout Melbourne and surrounding areas.","Melbourne Salvation Army",non_profit,"463 Collins St",Melbourne,Melbourne,VIC,3000,(03) 2326 6833,services@melbournesalvationar.org.au,https://www.melbournesalvationar.gov.au,"community_service, crisis_support, job_placement",true,false,Sydney Council,active,-37.82214337789387,144.96431154816756
8b4408f7-2535-4578-8fb2-0af0a099f568,"Melbourne Employment Training Hub","Providing community development services to young people in Melbourne and surrounding areas.","Melbourne Legal Aid",charity,"601 Main St",Melbourne,Melbourne,VIC,3000,(03) 9317 4618,help@melbournelegalaid.org.au,https://www.melbournelegalaid.com.au,"community_development",true,false,Data.WA,active,-37.8070877065074,144.95872528254026
a127385a-b720-4950-8272-5e10be4463e4,"Melbourne Drug & Alcohol Support","Comprehensive parenting support for young people throughout Melbourne and surrounding areas.","Melbourne Legal Aid",faith_based,"853 High St",Melbourne,Melbourne,VIC,3000,(03) 6045 3649,services@melbournelegalaid.gov.au,https://www.melbournelegalaid.org.au,"parenting, psychology, emergency_relief",true,false,Perth Council,active,-37.81823881886661,144.95920345116295
ef689a31-e19d-4a69-9562-ee17dda8577b,"Melbourne Multicultural Youth Services 45","Professional health services assistance available to young people in the Melbourne and surrounding areas region.","Melbourne Council",university,"67 Queen St",Melbourne,Melbourne,VIC,3000,(03) 7674 7301,services@melbournecouncil.gov.au,https://www.melbournecouncil.com.au,"health_services, parenting, dental",true,false,Data.gov.au,active,-37.804214475763516,144.9716407723461
7dafe3bb-af11-48cd-b10f-59477d84b29b,"Brisbane Youth Health Clinic","Community-based centrelink program serving young people across Brisbane and surrounding areas.","Brisbane Mission Australia",hospital,"728 Queen St",Brisbane City,Brisbane,QLD,4000,(07) 2744 0075,help@brisbanemissionaustr.gov.au,https://www.brisbanemissionaustr.com.au,"centrelink, vocational_education",true,false,NT Open Data,active,-27.459987372391065,153.02143004509455
26a942ac-0671-441f-8782-ac4d93cdd3d5,"Brisbane Youth Justice Support","Professional parenting assistance available to young people in the Brisbane and surrounding areas region.","Brisbane Mission Australia",university,"901 High St",Brisbane City,Brisbane,QLD,4000,(07) 8453 0149,help@brisbanemissionaustr.org.au,https://www.brisbanemissionaustr.gov.au,"parenting, medical",true,false,Ask Izzy,active,-27.477886474434207,153.03404076156784
34a4a642-b891-44c6-818e-23552782b525,"Brisbane Youth Development Program","Professional multicultural assistance available to young people in the Brisbane and surrounding areas region.","Brisbane Mission Australia",government,"308 Queen St",Brisbane City,Brisbane,QLD,4000,(07) 1425 4754,help@brisbanemissionaustr.com.au,https://www.brisbanemissionaustr.org.au,"multicultural",true,false,Data.NSW,active,-27.475924477839776,153.02138454628533
73e8dd90-78ec-4836-97a4-e854661254e8,"Brisbane Employment Training Hub","Dedicated suicide prevention services designed for community members living in Brisbane and surrounding areas.","Brisbane Mission Australia",hospital,"575 George St",Brisbane City,Brisbane,QLD,4000,(07) 3185 3863,services@brisbanemissionaustr.com.au,https://www.brisbanemissionaustr.org.au,"suicide_prevention, psychology",false,true,Data.NSW,active,-27.465057493850356,153.0209554744907
67e02864-6172-44fc-a83b-8e5200e75303,"Brisbane Youth Health Clinic 1","Community-based sexual health program serving young people across Brisbane and surrounding areas.","Brisbane Aboriginal Corporation",community,"493 Collins St",Brisbane City,Brisbane,QLD,4000,(07) 9324 0569,help@brisbaneaboriginalco.gov.au,https://www.brisbaneaboriginalco.com.au,"sexual_health, domestic_violence",true,false,Brisbane Council,active,-27.46079592556703,153.0202137569192
03bb6aa9-20c7-440b-829b-65aac94b730f,"Brisbane Youth Counselling Service","Dedicated employment services designed for young people living in Brisbane and surrounding areas.","Brisbane Aboriginal Corporation",non_profit,"799 Bourke St",Brisbane City,Brisbane,QLD,4000,(07) 9843 6921,info@brisbaneaboriginalco.org.au,https://www.brisbaneaboriginalco.com.au,"employment, crisis_support",true,false,Adelaide Council,active,-27.474215988395777,153.02102926620978
bc37b7e4-a7e5-4458-96a7-5097ff58d0c5,"Brisbane Youth Justice Support 19","Dedicated medical services designed for young people living in Brisbane and surrounding areas.","Brisbane Youth Services",faith_based,"487 Collins St",Brisbane City,Brisbane,QLD,4000,(07) 5550 8172,services@brisbaneyouthservice.com.au,https://www.brisbaneyouthservice.com.au,"medical, suicide_prevention, apprenticeships",true,false,Service Seeker,active,-27.47094859626708,153.02475367197525
1ddd5aa8-887d-43d6-8a3e-a7a3d6d035be,"Brisbane Drug & Alcohol Support","Professional sexual health assistance available to young people in the Brisbane and surrounding areas region.","Brisbane Salvation Army",commercial,"997 High St",Brisbane City,Brisbane,QLD,4000,(07) 7443 3774,help@brisbanesalvationarm.gov.au,https://www.brisbanesalvationarm.org.au,"sexual_health",true,false,Perth Council,active,-27.467036209526892,153.01746279211125
395075e6-c7c5-41c2-af4c-5764588a27d2,"Brisbane Indigenous Youth Centre","Providing education support services to young people in Brisbane and surrounding areas.","Headspace Brisbane",university,"196 Church St",Brisbane City,Brisbane,QLD,4000,(07) 4030 7645,support@headspacebrisbane.gov.au,https://www.headspacebrisbane.com.au,"education_support, victim_support",true,true,Service Seeker,active,-27.463868208023996,153.01703869936716
f4ef88ae-e75c-43e7-a51e-22c40e7ff723,"Brisbane Multicultural Youth Services","Providing victim support services to young people in Brisbane and surrounding areas.","Brisbane Neighbourhood Centre",university,"720 Collins St",Brisbane City,Brisbane,QLD,4000,(07) 8298 0163,support@brisbaneneighbourhoo.com.au,https://www.brisbaneneighbourhoo.com.au,"victim_support",true,false,Data.VIC,active,-27.477905739487838,153.03363267329718
4e5ffe9f-2b99-4566-ba8f-91290335224b,"Brisbane Employment Training Hub 72","Providing parenting services to community members in Brisbane and surrounding areas.","Brisbane YMCA",commercial,"81 King St",Brisbane City,Brisbane,QLD,4000,(07) 7768 9532,services@brisbaneymca.com.au,https://www.brisbaneymca.gov.au,"parenting, family_mediation, financial_counselling",false,false,Data.VIC,active,-27.476147432675333,153.02144170043348
c51b8fc4-8c41-4916-8a43-0ec684720c41,"Brisbane Youth Counselling Service 24","Professional work experience assistance available to young people in the Brisbane and surrounding areas region.","Brisbane Neighbourhood Centre",school,"188 Collins St",Brisbane City,Brisbane,QLD,4000,(07) 8895 9508,services@brisbaneneighbourhoo.org.au,https://www.brisbaneneighbourhoo.gov.au,"work_experience",true,false,Ask Izzy,active,-27.461253756973942,153.02892548463572
fe94e8bc-194f-4503-975a-7bd5ced342ca,"Brisbane Aboriginal Health Service","Providing volunteer programs services to young people in Brisbane and surrounding areas.","Brisbane Aboriginal Corporation",commercial,"727 George St",Brisbane City,Brisbane,QLD,4000,(07) 4749 5948,services@brisbaneaboriginalco.gov.au,https://www.brisbaneaboriginalco.gov.au,"volunteer_programs, mental_health, housing",true,true,Find & Connect,active,-27.47370240631064,153.03020430378328
a932a9c4-2ac4-48a1-8344-7efc4e7ef1f0,"Brisbane Crisis Support Service","Comprehensive legal aid support for young people throughout Brisbane and surrounding areas.","Brisbane Mission Australia",commercial,"906 Bourke St",Brisbane City,Brisbane,QLD,4000,(07) 1499 5678,contact@brisbanemissionaustr.org.au,https://www.brisbanemissionaustr.gov.au,"legal_aid",true,false,Service Seeker,active,-27.474843009858226,153.01660979682697
938ce4f4-725f-43b8-bd85-9508cc113088,"Brisbane Youth Legal Service","Comprehensive mentoring support for young people throughout Brisbane and surrounding areas.","Beyond Blue Brisbane",university,"690 King St",Brisbane City,Brisbane,QLD,4000,(07) 4294 7679,info@beyondbluebrisbane.com.au,https://www.beyondbluebrisbane.org.au,"mentoring, homelessness, community_development",true,false,Data.SA,active,-27.47311200313684,153.01802580146273
cfc41b56-7958-4e6d-bcb3-b0eeb2514ace,"Perth Youth Legal Service","Comprehensive career guidance support for young people throughout Perth and surrounding areas.","Headspace Perth",non_profit,"857 King St",Perth,Perth,WA,6000,(08) 2339 3719,info@headspaceperth.org.au,https://www.headspaceperth.gov.au,"career_guidance, legal_aid, education_support",true,false,Sydney Council,active,-31.94405035539815,115.85536593050983
ab65795d-93b9-4bba-8379-7c894b293e07,"Perth Homeless Youth Outreach","Community-based financial assistance program serving young people across Perth and surrounding areas.","Perth Council",university,"332 Collins St",Perth,Perth,WA,6000,(08) 7469 9296,info@perthcouncil.org.au,https://www.perthcouncil.com.au,"financial_assistance, parenting, community_service",true,false,Perth Council,active,-31.948319207286463,115.8629564407575
0def8444-97ce-4741-a138-00ee75172e92,"Perth Aboriginal Health Service","Comprehensive mentoring support for young people throughout Perth and surrounding areas.","Perth Salvation Army",school,"639 Church St",Perth,Perth,WA,6000,(08) 4080 9344,support@perthsalvationarmy.com.au,https://www.perthsalvationarmy.gov.au,"mentoring",true,true,Find & Connect,active,-31.947882041748535,115.86346948183633
20908eb1-cbc9-4580-996a-501dbb649c27,"Perth Emergency Relief Centre","Community-based parenting program serving young people across Perth and surrounding areas.","Perth Legal Aid",community,"460 Queen St",Perth,Perth,WA,6000,(08) 2211 0737,support@perthlegalaid.com.au,https://www.perthlegalaid.org.au,"parenting",true,false,NT Open Data,active,-31.958694819159483,115.85323285532724
a3ee130c-44e6-4695-8675-e89b27ff367f,"Perth Crisis Support Service","Dedicated court support services designed for young people living in Perth and surrounding areas.","Headspace Perth",faith_based,"65 Bourke St",Perth,Perth,WA,6000,(08) 5321 4565,info@headspaceperth.com.au,https://www.headspaceperth.com.au,"court_support, family_law",true,false,NT Open Data,active,-31.946414248941284,115.85303080846366
8edad90a-f8a1-4e6a-a775-06ea664461ee,"Perth Youth Development Program","Professional multicultural assistance available to young people in the Perth and surrounding areas region.","Perth Neighbourhood Centre",commercial,"928 Main St",Perth,Perth,WA,6000,(08) 9277 3691,help@perthneighbourhoodce.com.au,https://www.perthneighbourhoodce.com.au,"multicultural, legal_aid",true,false,List Tasmania,active,-31.956287508969343,115.85072381147452
cd032c64-dfcf-42ba-9721-ca220798e78f,"Perth Emergency Relief Centre 12","Providing court support services to community members in Perth and surrounding areas.","Perth Mission Australia",faith_based,"764 Queen St",Perth,Perth,WA,6000,(08) 8050 9888,contact@perthmissionaustrali.com.au,https://www.perthmissionaustrali.org.au,"court_support, victim_support, criminal_law",false,false,Sydney Council,active,-31.956604521692395,115.85985486774231
6c53c6f0-302b-4cdb-a34f-b0c3cd838ba9,"Perth Community Legal Centre","Comprehensive multicultural support for young people throughout Perth and surrounding areas.","Perth Mission Australia",indigenous,"798 King St",Perth,Perth,WA,6000,(08) 8573 8158,info@perthmissionaustrali.com.au,https://www.perthmissionaustrali.gov.au,"multicultural, financial_assistance",true,false,Find & Connect,active,-31.95312739653022,115.87000548877701
1d2c3324-7424-4081-ab25-8501072e7e29,"Perth Youth Housing Support","Community-based transitional housing program serving young people across Perth and surrounding areas.","Perth Aboriginal Corporation",school,"322 Main St",Perth,Perth,WA,6000,(08) 5701 4939,services@perthaboriginalcorpo.org.au,https://www.perthaboriginalcorpo.org.au,"transitional_housing, career_guidance",true,false,Data.NSW,active,-31.940597296284043,115.86761912616542
512fbd73-1ff2-46d1-ad47-484ad6ba9aa8,"Perth Employment Training Hub","Dedicated job placement services designed for community members living in Perth and surrounding areas.","Perth Salvation Army",charity,"252 High St",Perth,Perth,WA,6000,(08) 3552 9810,info@perthsalvationarmy.com.au,https://www.perthsalvationarmy.org.au,"job_placement, dental",false,false,Perth Council,active,-31.95237418539487,115.87045445238462
9d42dc75-720a-4ff0-8c81-c67198f4dfd8,"Perth Educational Support Centre","Dedicated family support services designed for young people living in Perth and surrounding areas.","Beyond Blue Perth",indigenous,"129 George St",Perth,Perth,WA,6000,(08) 4561 8596,contact@beyondblueperth.com.au,https://www.beyondblueperth.com.au,"family_support",true,false,Data.NSW,active,-31.955008979202272,115.85433382831611
86039fb3-0d30-4e71-8ebb-7df71f8e4630,"Perth Youth Housing Support 97","Comprehensive transitional housing support for young people throughout Perth and surrounding areas.","Perth Health Service",hospital,"9 Collins St",Perth,Perth,WA,6000,(08) 8373 0438,support@perthhealthservice.gov.au,https://www.perthhealthservice.gov.au,"transitional_housing, apprenticeships",true,false,List Tasmania,active,-31.956239032062864,115.869518331019
91d101d8-f5a3-4374-bcd4-60434499938e,"Perth Drug & Alcohol Support","Professional youth development assistance available to young people in the Perth and surrounding areas region.","Perth Youth Services",faith_based,"674 Collins St",Perth,Perth,WA,6000,(08) 8837 5753,help@perthyouthservices.org.au,https://www.perthyouthservices.gov.au,"youth_development, medical, crisis_support",true,false,Sydney Council,active,-31.95908080817559,115.85817096208737
450a3fae-e50a-40d9-b95a-5966cab29a82,"Perth Educational Support Centre 98","Dedicated legal aid services designed for young people living in Perth and surrounding areas.","Perth Community Centre",community,"29 Main St",Perth,Perth,WA,6000,(08) 9707 1234,services@perthcommunitycentre.com.au,https://www.perthcommunitycentre.gov.au,"legal_aid, career_guidance",true,false,Data.WA,active,-31.942360898188497,115.87028079984013
70f3b960-6b43-49ac-8f6b-cf9ddf377a4a,"Perth Educational Support Centre 97","Professional crisis accommodation assistance available to community members in the Perth and surrounding areas region.","Perth Community Centre",faith_based,"397 George St",Perth,Perth,WA,6000,(08) 3295 3490,help@perthcommunitycentre.org.au,https://www.perthcommunitycentre.gov.au,"crisis_accommodation, crisis_support",false,false,Melbourne Council,active,-31.948407579098046,115.86987741189722
c6dabe9c-bef6-4ce9-953a-62176dce64c2,"Adelaide Community Legal Centre","Dedicated cultural support services designed for community members living in Adelaide and surrounding areas.","Adelaide Salvation Army",community,"895 Bourke St",Adelaide,Adelaide,SA,5000,(08) 1105 6254,contact@adelaidesalvationarm.gov.au,https://www.adelaidesalvationarm.gov.au,"cultural_support",false,false,Data.VIC,active,-34.93282406453716,138.60865552022375
55eaa758-fe49-4bea-a994-45c1b7805654,"Adelaide Crisis Support Service","Community-based legal aid program serving community members across Adelaide and surrounding areas.","Adelaide Legal Aid",non_profit,"411 King St",Adelaide,Adelaide,SA,5000,(08) 6311 3524,support@adelaidelegalaid.gov.au,https://www.adelaidelegalaid.com.au,"legal_aid, multicultural, transport",false,false,Adelaide Council,active,-34.93236725284114,138.60112375423805
b3d2a862-066c-4a44-bfab-60cd48fe4787,"Adelaide Educational Support Centre","Providing legal aid services to community members in Adelaide and surrounding areas.","Headspace Adelaide",community,"635 High St",Adelaide,Adelaide,SA,5000,(08) 3732 7152,help@headspaceadelaide.org.au,https://www.headspaceadelaide.com.au,"legal_aid, homelessness, training",false,false,Data.ACT,active,-34.93389489857872,138.60190928146375
15840394-a3e0-4a18-ae02-522f16b89377,"Adelaide Youth Development Program","Providing court support services to young people in Adelaide and surrounding areas.","Headspace Adelaide",non_profit,"183 George St",Adelaide,Adelaide,SA,5000,(08) 8205 9943,support@headspaceadelaide.org.au,https://www.headspaceadelaide.org.au,"court_support, training",true,false,Brisbane Council,active,-34.92531417116382,138.60092350212545
6d9d11fd-1b6d-4b5f-9b19-d46bca3d9332,"Adelaide Community Legal Centre 43","Dedicated leadership services designed for young people living in Adelaide and surrounding areas.","Adelaide Youth Services",government,"255 Collins St",Adelaide,Adelaide,SA,5000,(08) 3142 7482,info@adelaideyouthservice.com.au,https://www.adelaideyouthservice.com.au,"leadership",true,false,Brisbane Council,active,-34.93157824178226,138.6048815924853
5ca3d9bd-f02c-4e41-baa4-615a02cab17a,"Adelaide Employment Training Hub","Comprehensive literacy support for young people throughout Adelaide and surrounding areas.","Adelaide YMCA",hospital,"452 King St",Adelaide,Adelaide,SA,5000,(08) 3287 8094,services@adelaideymca.org.au,https://www.adelaideymca.gov.au,"literacy, apprenticeships",true,false,List Tasmania,active,-34.925408213728566,138.61022323180964
81538354-1d38-4958-a2f5-27e5d9fb4d33,"Adelaide Community Legal Centre 1","Dedicated transport services designed for community members living in Adelaide and surrounding areas.","Adelaide Family Services",school,"478 George St",Adelaide,Adelaide,SA,5000,(08) 1341 7751,contact@adelaidefamilyservic.org.au,https://www.adelaidefamilyservic.gov.au,"transport",false,false,List Tasmania,active,-34.92306280186288,138.60168139325057
4bf4c939-f4e0-4371-b254-101863e27e24,"Adelaide Youth Development Program 53","Providing family law services to young people in Adelaide and surrounding areas.","Adelaide Mission Australia",hospital,"29 Main St",Adelaide,Adelaide,SA,5000,(08) 7563 4047,help@adelaidemissionaustr.org.au,https://www.adelaidemissionaustr.gov.au,"family_law",true,false,Ask Izzy,active,-34.91859600837914,138.60214635805465
3e684cc4-5682-42f9-b429-29c43c6f2a1e,"Adelaide Community Legal Centre 10","Professional family support assistance available to community members in the Adelaide and surrounding areas region.","Adelaide Family Services",hospital,"162 Bourke St",Adelaide,Adelaide,SA,5000,(08) 5505 4416,help@adelaidefamilyservic.com.au,https://www.adelaidefamilyservic.gov.au,"family_support, psychology",false,false,Melbourne Council,active,-34.93022532426525,138.6094450605057
1c22e866-53bc-40c1-a426-6d484c7f047c,"Adelaide Youth Health Clinic","Comprehensive domestic violence support for young people throughout Adelaide and surrounding areas.","Adelaide Health Service",school,"76 George St",Adelaide,Adelaide,SA,5000,(08) 5850 8902,contact@adelaidehealthservic.com.au,https://www.adelaidehealthservic.org.au,"domestic_violence",true,false,Service Seeker,active,-34.93338012277053,138.60460086050188
481ce068-dd86-4755-8a0d-47d2c235b415,"Adelaide Multicultural Youth Services","Professional criminal law assistance available to young people in the Adelaide and surrounding areas region.","Headspace Adelaide",indigenous,"377 Bourke St",Adelaide,Adelaide,SA,5000,(08) 4317 9534,support@headspaceadelaide.gov.au,https://www.headspaceadelaide.org.au,"criminal_law",true,false,Sydney Council,active,-34.93377782518155,138.5932983761669
1870a98e-5128-4f47-b934-1a9801428b4b,"Adelaide Youth Counselling Service","Providing emergency relief services to young people in Adelaide and surrounding areas.","Adelaide Family Services",school,"685 Main St",Adelaide,Adelaide,SA,5000,(08) 9839 0639,support@adelaidefamilyservic.com.au,https://www.adelaidefamilyservic.com.au,"emergency_relief",true,false,Adelaide Council,active,-34.927446363851686,138.5911394242927
953f202d-3f00-4555-882a-f1b8b6015ac3,"Adelaide Youth Counselling Service 62","Comprehensive emergency relief support for young people throughout Adelaide and surrounding areas.","Adelaide Health Service",school,"83 King St",Adelaide,Adelaide,SA,5000,(08) 9089 0029,services@adelaidehealthservic.org.au,https://www.adelaidehealthservic.org.au,"emergency_relief, mentoring, cultural_support",true,false,Australian Charities Register,active,-34.93154455310326,138.6072508922659
5cbfa883-f433-4a5e-9490-ec92c2f790e4,"Adelaide Drug & Alcohol Support","Community-based legal aid program serving young people across Adelaide and surrounding areas.","Adelaide Health Service",charity,"326 Collins St",Adelaide,Adelaide,SA,5000,(08) 8772 0554,help@adelaidehealthservic.gov.au,https://www.adelaidehealthservic.com.au,"legal_aid, emergency_relief, training",true,false,Data.QLD,active,-34.93129152549371,138.59844581605614
b8a02ff6-90ac-42cf-a12a-542481fa98d6,"Adelaide Emergency Relief Centre","Community-based work experience program serving young people across Adelaide and surrounding areas.","Lifeline Adelaide",university,"11 Bourke St",Adelaide,Adelaide,SA,5000,(08) 3034 8715,contact@lifelineadelaide.org.au,https://www.lifelineadelaide.com.au,"work_experience",true,false,Brisbane Council,active,-34.92708117713337,138.60566094453443
e9a233c1-f38a-4f6a-a1d5-664cad7726a1,"Canberra Youth Arts Program","Comprehensive employment support for young people throughout Canberra and surrounding areas.","Canberra Salvation Army",faith_based,"613 Queen St",Canberra City,Canberra,ACT,2600,(02) 7161 1468,help@canberrasalvationarm.com.au,https://www.canberrasalvationarm.org.au,"employment, homelessness, work_experience",true,false,Adelaide Council,active,-35.28889743583614,149.12507868425578
2e5a084f-3cef-4962-a20e-80e91d9f7b1f,"Canberra Drug & Alcohol Support","Comprehensive employment support for community members throughout Canberra and surrounding areas.","Beyond Blue Canberra",charity,"567 George St",Canberra City,Canberra,ACT,2600,(02) 3606 7480,help@beyondbluecanberra.org.au,https://www.beyondbluecanberra.gov.au,"employment, mental_health",false,false,Ask Izzy,active,-35.278719549846016,149.13521289585785
b2d2ea5c-5e59-4bd0-900d-28e115cbd825,"Canberra Family Violence Service","Providing crisis support services to young people in Canberra and surrounding areas.","Canberra Community Centre",indigenous,"877 Collins St",Canberra City,Canberra,ACT,2600,(02) 9263 0560,contact@canberracommunitycen.gov.au,https://www.canberracommunitycen.gov.au,"crisis_support",true,true,Service Seeker,active,-35.28208380703054,149.1315424555779
a3fefc2f-6bbb-4569-9eb9-e8417b1afa9f,"Canberra Aboriginal Health Service","Providing sexual health services to community members in Canberra and surrounding areas.","Beyond Blue Canberra",community,"974 George St",Canberra City,Canberra,ACT,2600,(02) 9603 5281,services@beyondbluecanberra.com.au,https://www.beyondbluecanberra.com.au,"sexual_health, parenting",false,true,Data.SA,active,-35.28618635304466,149.1369690256596
9c34a96d-ad44-4e0f-b9b5-94f624ce96e6,"Canberra Educational Support Centre","Comprehensive housing support for young people throughout Canberra and surrounding areas.","Lifeline Canberra",school,"502 Bourke St",Canberra City,Canberra,ACT,2600,(02) 4212 4689,support@lifelinecanberra.org.au,https://www.lifelinecanberra.gov.au,"housing, leadership, career_guidance",true,false,Data.VIC,active,-35.27847815411046,149.13891726402107
71b1a989-6c04-4d77-9d44-7432866a18f5,"Canberra Employment Training Hub","Dedicated training services designed for community members living in Canberra and surrounding areas.","Canberra Aboriginal Corporation",university,"594 Main St",Canberra City,Canberra,ACT,2600,(02) 4410 7615,contact@canberraaboriginalco.org.au,https://www.canberraaboriginalco.com.au,"training",false,false,Perth Council,active,-35.28928857737999,149.13472377355015
c59ef064-c6f7-4c52-ac36-8afe69078bcd,"Canberra Multicultural Youth Services","Dedicated arts culture services designed for young people living in Canberra and surrounding areas.","Canberra Youth Services",school,"962 George St",Canberra City,Canberra,ACT,2600,(02) 8822 7030,services@canberrayouthservice.com.au,https://www.canberrayouthservice.gov.au,"arts_culture, education_support, transitional_housing",true,false,Find & Connect,active,-35.285435580831965,149.12125423361258
4a0791a3-f55c-454c-ad73-649e97bcb8ad,"Canberra Community Mental Health","Comprehensive court support support for community members throughout Canberra and surrounding areas.","Canberra Aboriginal Corporation",non_profit,"293 Collins St",Canberra City,Canberra,ACT,2600,(02) 1576 6435,support@canberraaboriginalco.org.au,https://www.canberraaboriginalco.org.au,"court_support",false,false,Data.SA,active,-35.28984493703704,149.12686091111792
eee51169-a8a8-4441-ad56-3030d1772a5b,"Canberra Youth Mentoring Program","Providing arts culture services to young people in Canberra and surrounding areas.","Canberra Aboriginal Corporation",government,"719 Queen St",Canberra City,Canberra,ACT,2600,(02) 1928 7059,contact@canberraaboriginalco.com.au,https://www.canberraaboriginalco.org.au,"arts_culture",true,false,Data.VIC,active,-35.28467052992138,149.1217971468304
bcfabf6b-7137-49b3-bfdd-3ad55d9c3de4,"Canberra Educational Support Centre 6","Community-based psychology program serving community members across Canberra and surrounding areas.","Canberra Council",school,"842 George St",Canberra City,Canberra,ACT,2600,(02) 8220 7451,help@canberracouncil.gov.au,https://www.canberracouncil.org.au,"psychology, medical",false,true,Data.ACT,active,-35.287688300154294,149.13915500222464
32de413a-a955-490e-b4c1-107acf8f71cc,"Canberra Multicultural Youth Services 78","Professional housing assistance available to young people in the Canberra and surrounding areas region.","Headspace Canberra",non_profit,"125 Church St",Canberra City,Canberra,ACT,2600,(02) 7479 5138,contact@headspacecanberra.org.au,https://www.headspacecanberra.gov.au,"housing",true,false,Data.VIC,active,-35.27670843080756,149.13228281141676
ad4a5f15-0b42-4378-bd64-69d73c13c841,"Canberra Youth Health Clinic","Dedicated vocational education services designed for young people living in Canberra and surrounding areas.","Canberra Family Services",non_profit,"849 Queen St",Canberra City,Canberra,ACT,2600,(02) 5061 2646,support@canberrafamilyservic.org.au,https://www.canberrafamilyservic.com.au,"vocational_education, indigenous_services",true,true,Data.ACT,active,-35.28258512213266,149.13890171367592
6587edc2-d85e-4fd5-95bd-dc2a5e4417c2,"Canberra Emergency Relief Centre","Community-based health services program serving community members across Canberra and surrounding areas.","Canberra Council",indigenous,"323 Bourke St",Canberra City,Canberra,ACT,2600,(02) 2972 2609,help@canberracouncil.gov.au,https://www.canberracouncil.org.au,"health_services",false,false,Service Seeker,active,-35.27599069943638,149.13601142842697
10ef051f-b5ff-4f5d-a98d-98d98b98c135,"Canberra Youth Health Clinic 12","Comprehensive health services support for young people throughout Canberra and surrounding areas.","Canberra Legal Aid",school,"842 Bourke St",Canberra City,Canberra,ACT,2600,(02) 8120 1266,contact@canberralegalaid.org.au,https://www.canberralegalaid.gov.au,"health_services",true,true,Melbourne Council,active,-35.28195540221074,149.13793964088592
78588bb8-78f1-49bc-9682-5b1eb38fc902,"Canberra Youth Arts Program 29","Community-based family support program serving young people across Canberra and surrounding areas.","Beyond Blue Canberra",commercial,"502 High St",Canberra City,Canberra,ACT,2600,(02) 8899 0955,support@beyondbluecanberra.gov.au,https://www.beyondbluecanberra.org.au,"family_support, court_support",true,false,Data.ACT,active,-35.28479121572481,149.13068540148606
2da1ecd0-b00e-47c7-a147-b7f7ac8c748d,"Darwin Youth Development Program","Dedicated drug alcohol services designed for young people living in Darwin and surrounding areas.","Darwin Council",hospital,"848 Church St",Darwin City,Darwin,NT,0800,(08) 8079 6140,contact@darwincouncil.com.au,https://www.darwincouncil.com.au,"drug_alcohol",true,false,Melbourne Council,active,-12.454368488017963,130.84607561635346
0654bf6d-b9f8-4769-8d1b-f67729e0509f,"Darwin Homeless Youth Outreach","Dedicated drug alcohol services designed for young people living in Darwin and surrounding areas.","Darwin Legal Aid",commercial,"835 Main St",Darwin City,Darwin,NT,0800,(08) 2546 0415,services@darwinlegalaid.com.au,https://www.darwinlegalaid.com.au,"drug_alcohol, sports_recreation, indigenous_services",true,true,Adelaide Council,active,-12.467032076089884,130.84683657263162
243a674d-9937-4243-818e-b821ca125790,"Darwin Youth Housing Support","Providing multicultural services to young people in Darwin and surrounding areas.","Darwin Family Services",school,"606 George St",Darwin City,Darwin,NT,0800,(08) 8229 9245,contact@darwinfamilyservices.com.au,https://www.darwinfamilyservices.org.au,"multicultural, parenting",true,false,Data.NSW,active,-12.459439418200672,130.84200902904703
bc1d0ec2-15c7-491f-a08f-0b84dddfcfe6,"Darwin Youth Arts Program","Dedicated cultural support services designed for young people living in Darwin and surrounding areas.","Darwin Council",hospital,"386 Collins St",Darwin City,Darwin,NT,0800,(08) 5846 8842,contact@darwincouncil.org.au,https://www.darwincouncil.org.au,"cultural_support, family_law, centrelink",true,false,NT Open Data,active,-12.4617551219565,130.84394669915162
d35eb27d-c986-475e-98a2-fb4b96f63278,"Darwin Youth Justice Support","Professional drug alcohol assistance available to young people in the Darwin and surrounding areas region.","Darwin Health Service",school,"761 High St",Darwin City,Darwin,NT,0800,(08) 4506 5072,info@darwinhealthservice.gov.au,https://www.darwinhealthservice.com.au,"drug_alcohol",true,false,Data.ACT,active,-12.461051603323387,130.8440403423645
1d415cf1-42f4-4433-bbb3-838dbe3d5db4,"Darwin Homeless Youth Outreach 85","Dedicated transitional housing services designed for young people living in Darwin and surrounding areas.","Darwin Salvation Army",school,"367 King St",Darwin City,Darwin,NT,0800,(08) 7196 5134,services@darwinsalvationarmy.com.au,https://www.darwinsalvationarmy.org.au,"transitional_housing, training, financial_counselling",true,false,Adelaide Council,active,-12.455003644637276,130.84177438552373
e5036893-969e-4d13-812d-264fb71bfadf,"Darwin Employment Training Hub","Professional indigenous services assistance available to community members in the Darwin and surrounding areas region.","Darwin Youth Services",school,"88 Church St",Darwin City,Darwin,NT,0800,(08) 6998 1813,help@darwinyouthservices.org.au,https://www.darwinyouthservices.com.au,"indigenous_services",false,true,Data.VIC,active,-12.455776580677854,130.83611887827436
add48105-19a7-4a18-a017-094eadfc2b8c,"Darwin Employment Training Hub 74","Community-based sports recreation program serving young people across Darwin and surrounding areas.","Headspace Darwin",indigenous,"41 Main St",Darwin City,Darwin,NT,0800,(08) 8639 4716,contact@headspacedarwin.gov.au,https://www.headspacedarwin.org.au,"sports_recreation, cultural_support",true,true,Australian Charities Register,active,-12.469840895555127,130.84539591129723
98db35ec-93fa-4ad6-980f-cd8b83288e22,"Darwin Aboriginal Health Service","Professional sports recreation assistance available to young people in the Darwin and surrounding areas region.","Darwin Community Centre",school,"381 Church St",Darwin City,Darwin,NT,0800,(08) 9338 3093,info@darwincommunitycentr.com.au,https://www.darwincommunitycentr.com.au,"sports_recreation, cultural_support",true,true,Adelaide Council,active,-12.464132483630706,130.85448594248322
e23c50b3-2469-492c-909e-75df4cc90133,"Darwin Educational Support Centre","Community-based youth development program serving young people across Darwin and surrounding areas.","Beyond Blue Darwin",non_profit,"683 Bourke St",Darwin City,Darwin,NT,0800,(08) 2737 8530,support@beyondbluedarwin.org.au,https://www.beyondbluedarwin.com.au,"youth_development, medical",true,false,Data.ACT,active,-12.46086970527805,130.84222672408217
db7fc551-b65b-4fcd-99c5-22cc9c1bf130,"Darwin Youth Health Clinic","Professional crisis accommodation assistance available to young people in the Darwin and surrounding areas region.","Beyond Blue Darwin",non_profit,"809 Queen St",Darwin City,Darwin,NT,0800,(08) 7571 9993,info@beyondbluedarwin.org.au,https://www.beyondbluedarwin.com.au,"crisis_accommodation, cultural_support",true,false,Australian Charities Register,active,-12.462537734825398,130.8526785668636
2c04e77b-3307-4598-97a4-09e12a26e2d5,"Darwin Youth Legal Service","Comprehensive community development support for young people throughout Darwin and surrounding areas.","Darwin Aboriginal Corporation",indigenous,"705 Queen St",Darwin City,Darwin,NT,0800,(08) 3689 1136,help@darwinaboriginalcorp.com.au,https://www.darwinaboriginalcorp.gov.au,"community_development, transitional_housing, sports_recreation",true,false,Sydney Council,active,-12.462994142194487,130.83603115955137
9c4bb8d8-a085-45d1-8169-222f74cab7ed,"Darwin Youth Justice Support 94","Professional education support assistance available to young people in the Darwin and surrounding areas region.","Darwin YMCA",government,"747 Collins St",Darwin City,Darwin,NT,0800,(08) 2972 6384,services@darwinymca.gov.au,https://www.darwinymca.com.au,"education_support, family_mediation",true,false,Data.QLD,active,-12.459250093643705,130.83883398408233
abf284e9-df38-4d91-9bba-63f756e78e45,"Darwin Youth Arts Program 23","Community-based literacy program serving young people across Darwin and surrounding areas.","Beyond Blue Darwin",commercial,"215 Main St",Darwin City,Darwin,NT,0800,(08) 5693 1304,contact@beyondbluedarwin.org.au,https://www.beyondbluedarwin.gov.au,"literacy",true,false,NT Open Data,active,-12.461760359051114,130.83614679653164
bcf4cd65-ce5f-4778-8d05-ebfe3bd55550,"Darwin Drug & Alcohol Support","Dedicated psychology services designed for young people living in Darwin and surrounding areas.","Lifeline Darwin",school,"337 Collins St",Darwin City,Darwin,NT,0800,(08) 5483 3110,help@lifelinedarwin.gov.au,https://www.lifelinedarwin.org.au,"psychology",true,false,Brisbane Council,active,-12.461749744285537,130.85531879191052
eb1203de-e865-4f1e-9a5b-ad8117550b2f,"Hobart Youth Legal Service","Providing psychology services to young people in Hobart and surrounding areas.","Hobart Family Services",community,"467 Collins St",Hobart,Hobart,TAS,7000,(03) 6560 6224,support@hobartfamilyservices.org.au,https://www.hobartfamilyservices.com.au,"psychology, vocational_education, youth_development",true,false,Perth Council,active,-42.8832784554436,147.32094492061796
95340100-02a8-4b2f-85a2-f8db6c78992b,"Hobart Youth Counselling Service","Providing criminal law services to young people in Hobart and surrounding areas.","Hobart Youth Services",hospital,"862 High St",Hobart,Hobart,TAS,7000,(03) 6643 6381,services@hobartyouthservices.gov.au,https://www.hobartyouthservices.gov.au,"criminal_law, counselling, mentoring",true,false,Brisbane Council,active,-42.88105975182747,147.32055713333176
99e2b7cd-c02f-4fc4-9df5-d06efc686603,"Hobart Youth Mentoring Program","Community-based career guidance program serving young people across Hobart and surrounding areas.","Hobart Salvation Army",indigenous,"865 Main St",Hobart,Hobart,TAS,7000,(03) 6570 6212,info@hobartsalvationarmy.gov.au,https://www.hobartsalvationarmy.gov.au,"career_guidance, community_development",true,false,Data.QLD,active,-42.879248694631656,147.31891651659475
623c33d4-ca6a-4735-a67d-67c5ffd9ff5d,"Hobart Indigenous Youth Centre","Dedicated health services services designed for young people living in Hobart and surrounding areas.","Hobart Salvation Army",non_profit,"463 George St",Hobart,Hobart,TAS,7000,(03) 1977 6969,contact@hobartsalvationarmy.org.au,https://www.hobartsalvationarmy.org.au,"health_services",true,true,Ask Izzy,active,-42.88703085984333,147.32085769807836
1301969e-ca08-4e71-bbec-588368335eb3,"Hobart Youth Mentoring Program 93","Comprehensive victim support support for young people throughout Hobart and surrounding areas.","Hobart Aboriginal Corporation",government,"160 Bourke St",Hobart,Hobart,TAS,7000,(03) 3444 2029,info@hobartaboriginalcorp.gov.au,https://www.hobartaboriginalcorp.com.au,"victim_support, community_development",true,false,Find & Connect,active,-42.88101098023574,147.31733907158142
5c75ce46-2843-4a34-82f4-0f20c0c83ec4,"Hobart Educational Support Centre","Professional legal aid assistance available to young people in the Hobart and surrounding areas region.","Hobart Family Services",faith_based,"854 Church St",Hobart,Hobart,TAS,7000,(03) 1614 2230,help@hobartfamilyservices.gov.au,https://www.hobartfamilyservices.org.au,"legal_aid, homelessness, counselling",true,false,Data.QLD,active,-42.88977789952222,147.3251496746293
e160cc0c-5bfe-4db6-979d-01b87c40f469,"Hobart Youth Housing Support","Comprehensive transport support for young people throughout Hobart and surrounding areas.","Hobart Neighbourhood Centre",school,"652 High St",Hobart,Hobart,TAS,7000,(03) 9365 9359,info@hobartneighbourhoodc.gov.au,https://www.hobartneighbourhoodc.gov.au,"transport, family_support",true,false,Data.QLD,active,-42.88510462415757,147.31898643527643
bd45b78b-1555-4beb-a2d1-dd9d9764ddb6,"Hobart Youth Counselling Service 86","Dedicated education support services designed for young people living in Hobart and surrounding areas.","Lifeline Hobart",commercial,"438 Bourke St",Hobart,Hobart,TAS,7000,(03) 1761 8207,info@lifelinehobart.gov.au,https://www.lifelinehobart.com.au,"education_support",true,true,Data.ACT,active,-42.879112351460016,147.3224312079921
16b6d5a1-51bc-40d6-90e5-e1394250cfbb,"Hobart Indigenous Youth Centre 27","Providing domestic violence services to young people in Hobart and surrounding areas.","Hobart Salvation Army",charity,"421 Bourke St",Hobart,Hobart,TAS,7000,(03) 4910 3646,contact@hobartsalvationarmy.org.au,https://www.hobartsalvationarmy.com.au,"domestic_violence",true,true,Data.VIC,active,-42.87577294840504,147.33079941455296
132706b0-5512-48c0-a997-cdbb49217a07,"Hobart Community Mental Health","Professional arts culture assistance available to community members in the Hobart and surrounding areas region.","Beyond Blue Hobart",non_profit,"897 George St",Hobart,Hobart,TAS,7000,(03) 6981 7576,support@beyondbluehobart.com.au,https://www.beyondbluehobart.com.au,"arts_culture, psychology",false,false,Service Seeker,active,-42.88241406605836,147.3303889433283
c350a0a8-0cc9-47cb-8357-86958d0c25f4,"Hobart Educational Support Centre 89","Providing work experience services to young people in Hobart and surrounding areas.","Headspace Hobart",government,"610 Bourke St",Hobart,Hobart,TAS,7000,(03) 5441 2127,help@headspacehobart.org.au,https://www.headspacehobart.org.au,"work_experience",true,false,Brisbane Council,active,-42.877826684325775,147.33290703524779
e960cc76-7d84-4427-891a-b0249a2aef94,"Hobart Youth Health Clinic","Providing leadership services to young people in Hobart and surrounding areas.","Hobart Legal Aid",school,"212 George St",Hobart,Hobart,TAS,7000,(03) 9509 4150,info@hobartlegalaid.org.au,https://www.hobartlegalaid.gov.au,"leadership, domestic_violence, work_experience",true,false,Data.gov.au,active,-42.87283501566722,147.33055143742845
2916de61-4945-4742-8cdf-562d5931f84f,"Hobart Drug & Alcohol Support","Community-based leadership program serving young people across Hobart and surrounding areas.","Hobart Community Centre",faith_based,"833 Queen St",Hobart,Hobart,TAS,7000,(03) 5974 0058,services@hobartcommunitycentr.org.au,https://www.hobartcommunitycentr.org.au,"leadership, domestic_violence, transport",true,false,Data.gov.au,active,-42.881897805341545,147.31833419885052
cad0332a-ad9c-41cc-8ad3-ab3544ba7c5c,"Hobart Youth Justice Support","Comprehensive psychology support for young people throughout Hobart and surrounding areas.","Hobart Family Services",community,"613 High St",Hobart,Hobart,TAS,7000,(03) 6742 6169,info@hobartfamilyservices.com.au,https://www.hobartfamilyservices.com.au,"psychology, leadership, literacy",true,false,Data.QLD,active,-42.890166809642764,147.32965072217618
450f3e39-d6c5-430a-9b3b-432a08ff6d3a,"Hobart Indigenous Youth Centre 66","Dedicated legal aid services designed for young people living in Hobart and surrounding areas.","Lifeline Hobart",commercial,"198 High St",Hobart,Hobart,TAS,7000,(03) 9368 3540,help@lifelinehobart.org.au,https://www.lifelinehobart.org.au,"legal_aid, refugee_services, arts_culture",true,true,Data.SA,active,-42.88222949357942,147.33703818945853
0da0a7d1-54c5-4679-b6f1-5d8ef291c223,"Newcastle Youth Legal Service","Comprehensive work experience support for young people throughout Newcastle and surrounding areas.","Newcastle Legal Aid",indigenous,"414 High St",Newcastle,Newcastle,NSW,2300,(02) 1442 6957,contact@newcastlelegalaid.gov.au,https://www.newcastlelegalaid.org.au,"work_experience",true,false,Service Seeker,active,-32.92715355574035,151.79128101971284
13c17cfb-b25a-4c54-90f7-cf2e37ecbee6,"Newcastle Emergency Relief Centre","Comprehensive dental support for community members throughout Newcastle and surrounding areas.","Newcastle Community Centre",commercial,"82 Bourke St",Newcastle,Newcastle,NSW,2300,(02) 7287 0622,info@newcastlecommunityce.org.au,https://www.newcastlecommunityce.com.au,"dental, legal_aid, career_guidance",false,false,Australian Charities Register,active,-32.92248949601966,151.77205285957615
54960207-5447-4697-ad9d-9296d717f460,"Newcastle Crisis Support Service","Community-based family law program serving young people across Newcastle and surrounding areas.","Newcastle Health Service",hospital,"689 Collins St",Newcastle,Newcastle,NSW,2300,(02) 9138 2859,support@newcastlehealthservi.com.au,https://www.newcastlehealthservi.org.au,"family_law",true,false,Sydney Council,active,-32.92354750632067,151.78119328259345
3ea2d8fe-9420-42e3-bca8-786db7dae44a,"Newcastle Youth Legal Service 51","Dedicated parenting services designed for young people living in Newcastle and surrounding areas.","Newcastle Aboriginal Corporation",commercial,"837 Bourke St",Newcastle,Newcastle,NSW,2300,(02) 1611 6060,services@newcastleaboriginalc.com.au,https://www.newcastleaboriginalc.org.au,"parenting, sexual_health, transport",true,false,Data.NSW,active,-32.933078401781515,151.78165179527272
560efb8e-4e8d-43f3-a373-4965193cab8d,"Newcastle Homeless Youth Outreach","Professional sexual health assistance available to young people in the Newcastle and surrounding areas region.","Beyond Blue Newcastle",faith_based,"262 Bourke St",Newcastle,Newcastle,NSW,2300,(02) 4145 8332,help@beyondbluenewcastle.gov.au,https://www.beyondbluenewcastle.com.au,"sexual_health",true,false,Find & Connect,active,-32.92918073306394,151.77539595813218
4f75e49e-41e5-4ca0-92af-748fe3cf3cdb,"Newcastle Emergency Relief Centre 56","Dedicated transitional housing services designed for young people living in Newcastle and surrounding areas.","Headspace Newcastle",non_profit,"765 High St",Newcastle,Newcastle,NSW,2300,(02) 2098 4127,info@headspacenewcastle.org.au,https://www.headspacenewcastle.com.au,"transitional_housing, health_services",true,false,Data.SA,active,-32.92101761937628,151.7805924855168
3982bb3e-ea88-4cd4-afc6-be273093cae1,"Newcastle Employment Training Hub","Dedicated crisis support services designed for young people living in Newcastle and surrounding areas.","Newcastle Family Services",university,"913 High St",Newcastle,Newcastle,NSW,2300,(02) 2926 3146,support@newcastlefamilyservi.org.au,https://www.newcastlefamilyservi.gov.au,"crisis_support, career_guidance, apprenticeships",true,false,List Tasmania,active,-32.92656679038382,151.77236878436614
2bac36f7-9980-4102-a109-658279af062d,"Newcastle Aboriginal Health Service","Comprehensive education support support for young people throughout Newcastle and surrounding areas.","Newcastle Aboriginal Corporation",school,"157 King St",Newcastle,Newcastle,NSW,2300,(02) 1517 0986,services@newcastleaboriginalc.com.au,https://www.newcastleaboriginalc.com.au,"education_support, job_placement",true,true,Data.QLD,active,-32.92681187212452,151.77803019459907
1df049c8-ab1f-461c-9604-b1768fdd2761,"Wollongong Employment Training Hub","Community-based vocational education program serving young people across Wollongong and surrounding areas.","Wollongong Health Service",school,"724 Bourke St",Wollongong,Wollongong,NSW,2500,(02) 8129 4386,help@wollongonghealthserv.org.au,https://www.wollongonghealthserv.org.au,"vocational_education, medical",true,true,Data.NSW,active,-34.41645680668149,150.8963188694225
5ace7512-7221-41b1-a5b0-7e50e1b44071,"Wollongong Educational Support Centre","Community-based domestic violence program serving community members across Wollongong and surrounding areas.","Wollongong Neighbourhood Centre",community,"830 Church St",Wollongong,Wollongong,NSW,2500,(02) 5390 0519,services@wollongongneighbourh.org.au,https://www.wollongongneighbourh.gov.au,"domestic_violence, education_support",false,false,Find & Connect,active,-34.42359506580493,150.8879033700205
f4062fa9-5858-44c7-9130-ab7704eee13a,"Wollongong Youth Housing Support","Dedicated health services services designed for young people living in Wollongong and surrounding areas.","Wollongong Legal Aid",commercial,"672 Main St",Wollongong,Wollongong,NSW,2500,(02) 8682 7921,support@wollongonglegalaid.gov.au,https://www.wollongonglegalaid.gov.au,"health_services",true,false,List Tasmania,active,-34.4320516481336,150.89134403533313
1cfb17d0-4b15-4e90-bd04-9713940bba82,"Wollongong Youth Arts Program","Dedicated victim support services designed for young people living in Wollongong and surrounding areas.","Beyond Blue Wollongong",community,"975 Collins St",Wollongong,Wollongong,NSW,2500,(02) 2305 3613,info@beyondbluewollongong.com.au,https://www.beyondbluewollongong.org.au,"victim_support",true,false,Service Seeker,active,-34.42861927980557,150.89610887877092
6aa46ad8-a35b-40db-addf-fff541c64207,"Wollongong Family Violence Service","Community-based community service program serving young people across Wollongong and surrounding areas.","Wollongong Health Service",non_profit,"562 George St",Wollongong,Wollongong,NSW,2500,(02) 5458 7875,services@wollongonghealthserv.org.au,https://www.wollongonghealthserv.gov.au,"community_service",true,false,Ask Izzy,active,-34.43001285440886,150.88432799126002
12fdf9ff-7f60-439c-88d9-e226d3e89847,"Wollongong Crisis Support Service","Community-based health services program serving community members across Wollongong and surrounding areas.","Headspace Wollongong",non_profit,"171 Queen St",Wollongong,Wollongong,NSW,2500,(02) 3305 7914,info@headspacewollongong.org.au,https://www.headspacewollongong.gov.au,"health_services, education_support",false,false,List Tasmania,active,-34.430840665872026,150.89136760941662
e3112595-352f-410b-ac4d-ec8c35d74caa,"Wollongong Indigenous Youth Centre","Providing youth development services to young people in Wollongong and surrounding areas.","Beyond Blue Wollongong",government,"450 Queen St",Wollongong,Wollongong,NSW,2500,(02) 9099 4549,services@beyondbluewollongong.com.au,https://www.beyondbluewollongong.com.au,"youth_development, indigenous_services, career_guidance",true,true,Melbourne Council,active,-34.426880946941196,150.88774455373132
01568668-0d77-4c86-aece-0e84f7e43b98,"Wollongong Employment Training Hub 10","Community-based career guidance program serving community members across Wollongong and surrounding areas.","Wollongong Youth Services",commercial,"823 Bourke St",Wollongong,Wollongong,NSW,2500,(02) 4580 0332,help@wollongongyouthservi.org.au,https://www.wollongongyouthservi.org.au,"career_guidance, volunteer_programs",false,false,Data.QLD,active,-34.431596290747486,150.88367566158473
ac6a9b6e-ffa0-4433-9c47-0105e104a14d,"Parramatta Emergency Relief Centre","Professional transport assistance available to young people in the Parramatta and surrounding areas region.","Parramatta Salvation Army",faith_based,"235 Main St",Parramatta,Parramatta,NSW,2150,(02) 9510 8760,services@parramattasalvationa.org.au,https://www.parramattasalvationa.com.au,"transport, medical",true,true,Service Seeker,active,-33.81876246105808,151.00421362691247
9346feab-87ad-47d8-84ca-eb56a9eedbcc,"Parramatta Youth Justice Support","Professional psychology assistance available to young people in the Parramatta and surrounding areas region.","Parramatta Community Centre",university,"625 High St",Parramatta,Parramatta,NSW,2150,(02) 8001 5053,help@parramattacommunityc.com.au,https://www.parramattacommunityc.com.au,"psychology",true,true,Data.QLD,active,-33.808900215900785,151.00296951654897
8c36f6df-7171-4951-a193-5a2da38e5a15,"Parramatta Community Mental Health","Comprehensive leadership support for young people throughout Parramatta and surrounding areas.","Headspace Parramatta",charity,"100 King St",Parramatta,Parramatta,NSW,2150,(02) 8434 1581,contact@headspaceparramatta.org.au,https://www.headspaceparramatta.gov.au,"leadership",true,true,Sydney Council,active,-33.81351394763403,150.99245977934973
0c122a7a-eff5-48f8-b22b-713b2a6cfac3,"Parramatta Youth Counselling Service","Comprehensive suicide prevention support for young people throughout Parramatta and surrounding areas.","Parramatta Neighbourhood Centre",non_profit,"327 High St",Parramatta,Parramatta,NSW,2150,(02) 6541 0917,contact@parramattaneighbourh.gov.au,https://www.parramattaneighbourh.com.au,"suicide_prevention",true,false,Find & Connect,active,-33.82242563698286,151.00089147039364
8720f3da-88e8-4e71-b9f3-9564e91767c8,"Parramatta Employment Training Hub","Comprehensive dental support for young people throughout Parramatta and surrounding areas.","Parramatta Family Services",non_profit,"835 Collins St",Parramatta,Parramatta,NSW,2150,(02) 9995 3615,info@parramattafamilyserv.org.au,https://www.parramattafamilyserv.org.au,"dental, crisis_accommodation, emergency_relief",true,false,Melbourne Council,active,-33.80929938184766,151.0027946989347
f03a3f57-7620-4561-99c3-4036fb571735,"Parramatta Homeless Youth Outreach","Providing counselling services to young people in Parramatta and surrounding areas.","Parramatta Mission Australia",non_profit,"227 King St",Parramatta,Parramatta,NSW,2150,(02) 1348 4460,info@parramattamissionaus.gov.au,https://www.parramattamissionaus.gov.au,"counselling",true,false,Data.gov.au,active,-33.81975037333464,151.0030861331647
e1dc9d83-71e1-4d81-a86c-1f69b8ae0252,"Parramatta Community Legal Centre","Professional training assistance available to young people in the Parramatta and surrounding areas region.","Parramatta Salvation Army",non_profit,"851 Main St",Parramatta,Parramatta,NSW,2150,(02) 9677 0720,contact@parramattasalvationa.org.au,https://www.parramattasalvationa.com.au,"training, sports_recreation, apprenticeships",true,false,Brisbane Council,active,-33.81786903148641,151.0080308648579
d56e37ba-9a0c-475b-a372-97a56467c19f,"Parramatta Employment Training Hub 27","Providing work experience services to young people in Parramatta and surrounding areas.","Parramatta Council",community,"397 Queen St",Parramatta,Parramatta,NSW,2150,(02) 1171 9082,contact@parramattacouncil.org.au,https://www.parramattacouncil.org.au,"work_experience, family_law, mentoring",true,false,Data.ACT,active,-33.81769650688799,151.00583894841947
e3a304a1-45d4-4778-b222-bf29d07f5072,"Orange Youth Health Clinic","Community-based cultural support program serving young people across Orange and surrounding areas.","Orange Mission Australia",faith_based,"614 George St",Orange,Orange,NSW,2800,(02) 3504 3742,services@orangemissionaustral.com.au,https://www.orangemissionaustral.org.au,"cultural_support",true,false,Ask Izzy,active,-33.28486569366276,149.09166693008817
36d2139a-4911-47e0-982d-fdafb5fdb5e0,"Orange Youth Development Program","Dedicated youth development services designed for young people living in Orange and surrounding areas.","Orange Youth Services",commercial,"230 George St",Orange,Orange,NSW,2800,(02) 8397 9903,help@orangeyouthservices.org.au,https://www.orangeyouthservices.com.au,"youth_development, psychology, domestic_violence",true,false,Australian Charities Register,active,-33.29132174998396,149.0961236979961
4f2003ad-e5dd-4388-90c0-a0537d03ac1e,"Orange Youth Mentoring Program","Professional sexual health assistance available to young people in the Orange and surrounding areas region.","Orange Community Centre",hospital,"598 Queen St",Orange,Orange,NSW,2800,(02) 3818 4618,contact@orangecommunitycentr.org.au,https://www.orangecommunitycentr.org.au,"sexual_health, indigenous_services, multicultural",true,true,Data.gov.au,active,-33.277207583914844,149.0938802508783
4893859e-6efe-461b-a06c-1b973ff0e466,"Orange Aboriginal Health Service","Professional cultural support assistance available to community members in the Orange and surrounding areas region.","Beyond Blue Orange",non_profit,"505 Queen St",Orange,Orange,NSW,2800,(02) 5646 7390,contact@beyondblueorange.com.au,https://www.beyondblueorange.gov.au,"cultural_support",false,true,Brisbane Council,active,-33.27623686976275,149.10095331223206
21f5ea3a-e1f2-44bc-aff0-aa9c2e8f5564,"Dubbo Youth Housing Support","Dedicated transitional housing services designed for young people living in Dubbo and surrounding areas.","Dubbo Youth Services",school,"205 Church St",Dubbo,Dubbo,NSW,2830,(02) 8898 1601,services@dubboyouthservices.com.au,https://www.dubboyouthservices.gov.au,"transitional_housing",true,false,Data.WA,active,-32.25251681183367,148.59429557804674
2eacf7aa-95d4-4789-8f5b-189b4da9d001,"Dubbo Crisis Support Service","Comprehensive transport support for community members throughout Dubbo and surrounding areas.","Dubbo Health Service",commercial,"36 King St",Dubbo,Dubbo,NSW,2830,(02) 5850 5574,help@dubbohealthservice.org.au,https://www.dubbohealthservice.com.au,"transport, homelessness, parenting",false,false,Melbourne Council,active,-32.235853562200184,148.60394040745132
8462cb66-752c-4b98-b94e-8ac96a9354d2,"Dubbo Youth Counselling Service","Providing housing services to young people in Dubbo and surrounding areas.","Dubbo YMCA",indigenous,"404 George St",Dubbo,Dubbo,NSW,2830,(02) 4911 4051,info@dubboymca.org.au,https://www.dubboymca.gov.au,"housing, family_law, crisis_accommodation",true,false,Data.SA,active,-32.23310675374665,148.59319634230843
88ec714d-73b2-47d0-9028-df0a04908e73,"Dubbo Youth Mentoring Program","Comprehensive drug alcohol support for young people throughout Dubbo and surrounding areas.","Beyond Blue Dubbo",commercial,"191 Bourke St",Dubbo,Dubbo,NSW,2830,(02) 6847 2794,help@beyondbluedubbo.com.au,https://www.beyondbluedubbo.org.au,"drug_alcohol, literacy, homelessness",true,false,Perth Council,active,-32.24658351354081,148.6079282755127
d50660bc-a578-4bf7-b63f-93de42cc6d99,"Geelong Aboriginal Health Service","Dedicated family mediation services designed for community members living in Geelong and surrounding areas.","Geelong Legal Aid",school,"24 Church St",Geelong,Geelong,VIC,3220,(03) 5850 5271,contact@geelonglegalaid.gov.au,https://www.geelonglegalaid.org.au,"family_mediation",false,true,Service Seeker,active,-38.144548211933454,144.35616777822108
5498f544-b9c5-4163-af54-d18377b36c87,"Geelong Drug & Alcohol Support","Comprehensive work experience support for young people throughout Geelong and surrounding areas.","Geelong Youth Services",commercial,"245 High St",Geelong,Geelong,VIC,3220,(03) 7630 1619,info@geelongyouthservices.com.au,https://www.geelongyouthservices.com.au,"work_experience",true,false,Data.ACT,active,-38.158410391219526,144.35603723702934
bca7d5e4-8dde-462d-bb5f-91a6888b18b6,"Geelong Emergency Relief Centre","Professional drug alcohol assistance available to young people in the Geelong and surrounding areas region.","Geelong Council",school,"496 George St",Geelong,Geelong,VIC,3220,(03) 9127 1080,contact@geelongcouncil.org.au,https://www.geelongcouncil.gov.au,"drug_alcohol, crisis_accommodation",true,false,Data.SA,active,-38.1588103714146,144.36540147174225
27aa1a3f-a48e-4a8b-a84d-f94a20877155,"Geelong Youth Counselling Service","Comprehensive job placement support for young people throughout Geelong and surrounding areas.","Geelong Aboriginal Corporation",community,"193 George St",Geelong,Geelong,VIC,3220,(03) 1697 8780,help@geelongaboriginalcor.com.au,https://www.geelongaboriginalcor.org.au,"job_placement, crisis_accommodation",true,false,Ask Izzy,active,-38.14214345242887,144.36560736066278
b517a8a6-6b47-4eae-8b2f-fa151c7c010a,"Geelong Youth Arts Program","Providing drug alcohol services to young people in Geelong and surrounding areas.","Geelong Family Services",community,"897 Queen St",Geelong,Geelong,VIC,3220,(03) 4819 8615,support@geelongfamilyservice.org.au,https://www.geelongfamilyservice.org.au,"drug_alcohol, apprenticeships",true,false,Adelaide Council,active,-38.15285593175348,144.3657543869368
e5eebdf8-908b-43ef-9355-72a20205fb71,"Geelong Youth Mentoring Program","Professional leadership assistance available to young people in the Geelong and surrounding areas region.","Beyond Blue Geelong",school,"101 Collins St",Geelong,Geelong,VIC,3220,(03) 1664 4678,help@beyondbluegeelong.com.au,https://www.beyondbluegeelong.org.au,"leadership, cultural_support",true,false,Brisbane Council,active,-38.15659119950956,144.36973741478783
fcfd20c2-4051-4743-9f4c-2dffb10f7a90,"Geelong Youth Justice Support","Comprehensive training support for young people throughout Geelong and surrounding areas.","Lifeline Geelong",hospital,"731 George St",Geelong,Geelong,VIC,3220,(03) 7808 9586,info@lifelinegeelong.com.au,https://www.lifelinegeelong.gov.au,"training",true,false,List Tasmania,active,-38.15930057221512,144.35283156768728
d5c9e4df-6e25-4948-af59-2188392af7b9,"Geelong Youth Counselling Service 26","Community-based legal aid program serving young people across Geelong and surrounding areas.","Geelong YMCA",hospital,"795 High St",Geelong,Geelong,VIC,3220,(03) 7900 4424,contact@geelongymca.org.au,https://www.geelongymca.org.au,"legal_aid",true,false,Data.VIC,active,-38.14012763696734,144.36603687892796
643e3c19-f8f4-43ff-bc20-24a14932f8df,"Ballarat Youth Counselling Service","Community-based counselling program serving young people across Ballarat and surrounding areas.","Lifeline Ballarat",indigenous,"525 Main St",Ballarat,Ballarat,VIC,3350,(03) 9444 0434,services@lifelineballarat.com.au,https://www.lifelineballarat.com.au,"counselling, emergency_relief, criminal_law",true,false,Ask Izzy,active,-37.56081521835102,143.84475012051414
958f5e86-1a33-4360-acac-5862e40ca92a,"Ballarat Family Violence Service","Comprehensive counselling support for community members throughout Ballarat and surrounding areas.","Ballarat YMCA",non_profit,"645 Main St",Ballarat,Ballarat,VIC,3350,(03) 6166 7395,info@ballaratymca.gov.au,https://www.ballaratymca.gov.au,"counselling, community_development",false,true,Data.VIC,active,-37.557396963080116,143.84945418713863
e5e8991f-8537-4b61-a0bd-8851687b06cd,"Ballarat Youth Health Clinic","Providing community development services to young people in Ballarat and surrounding areas.","Ballarat Community Centre",non_profit,"869 King St",Ballarat,Ballarat,VIC,3350,(03) 3643 8955,help@ballaratcommunitycen.com.au,https://www.ballaratcommunitycen.com.au,"community_development, mentoring, court_support",true,false,Adelaide Council,active,-37.556639082592774,143.85908984209522
526e1380-1a20-45bc-b5d1-25604ebb54e9,"Ballarat Community Legal Centre","Professional job placement assistance available to young people in the Ballarat and surrounding areas region.","Ballarat Family Services",government,"102 Queen St",Ballarat,Ballarat,VIC,3350,(03) 5533 7997,info@ballaratfamilyservic.com.au,https://www.ballaratfamilyservic.org.au,"job_placement",true,false,Brisbane Council,active,-37.557808718706035,143.85845087794758
a145b2a6-9515-425e-8f4f-9809b14ba85b,"Ballarat Crisis Support Service","Comprehensive job placement support for young people throughout Ballarat and surrounding areas.","Ballarat Salvation Army",non_profit,"205 High St",Ballarat,Ballarat,VIC,3350,(03) 2169 0188,support@ballaratsalvationarm.gov.au,https://www.ballaratsalvationarm.gov.au,"job_placement",true,false,NT Open Data,active,-37.558074562243455,143.852545057573
8f4c75cc-850e-45b5-8ac1-deca75abf4a8,"Ballarat Youth Mentoring Program","Community-based domestic violence program serving young people across Ballarat and surrounding areas.","Ballarat Salvation Army",hospital,"161 High St",Ballarat,Ballarat,VIC,3350,(03) 7571 5743,help@ballaratsalvationarm.org.au,https://www.ballaratsalvationarm.com.au,"domestic_violence",true,false,Data.ACT,active,-37.55628195747125,143.85544925465584
05957564-a5eb-4b22-b606-3b59d71bab09,"Ballarat Family Violence Service 90","Providing work experience services to community members in Ballarat and surrounding areas.","Ballarat YMCA",university,"46 King St",Ballarat,Ballarat,VIC,3350,(03) 7246 1614,support@ballaratymca.com.au,https://www.ballaratymca.gov.au,"work_experience, training",false,true,NT Open Data,active,-37.55634443507717,143.84459187737983
195602a3-d00a-4f1e-b6fc-82fa7ef2c35e,"Ballarat Employment Training Hub","Professional parenting assistance available to young people in the Ballarat and surrounding areas region.","Ballarat Salvation Army",school,"763 King St",Ballarat,Ballarat,VIC,3350,(03) 2836 9870,help@ballaratsalvationarm.gov.au,https://www.ballaratsalvationarm.gov.au,"parenting, career_guidance, psychology",true,false,Brisbane Council,active,-37.55773284723442,143.8446817259016
639c72fb-0461-4bfd-b114-9134405c23ee,"Bendigo Employment Training Hub","Comprehensive parenting support for community members throughout Bendigo and surrounding areas.","Lifeline Bendigo",government,"73 Collins St",Bendigo,Bendigo,VIC,3550,(03) 1263 2255,contact@lifelinebendigo.com.au,https://www.lifelinebendigo.org.au,"parenting, suicide_prevention",false,false,Data.ACT,active,-36.75666280465571,144.2813925200749
f88c9767-5d7c-4ad2-a327-1db670ae8f59,"Bendigo Employment Training Hub 28","Providing emergency relief services to young people in Bendigo and surrounding areas.","Lifeline Bendigo",charity,"862 Collins St",Bendigo,Bendigo,VIC,3550,(03) 7965 0476,info@lifelinebendigo.com.au,https://www.lifelinebendigo.org.au,"emergency_relief, youth_development, homelessness",true,true,Data.WA,active,-36.766089935283254,144.2788914907642
434d3ff1-bcf5-4f00-9025-18825fb858f7,"Bendigo Youth Legal Service","Dedicated dental services designed for young people living in Bendigo and surrounding areas.","Bendigo Mission Australia",community,"129 Collins St",Bendigo,Bendigo,VIC,3550,(03) 5311 0924,help@bendigomissionaustra.com.au,https://www.bendigomissionaustra.com.au,"dental, transport",true,true,Data.WA,active,-36.749726381558936,144.2857016913954
22ef8d67-a58d-44dd-8893-1edecb59e3a5,"Bendigo Youth Justice Support","Community-based work experience program serving young people across Bendigo and surrounding areas.","Bendigo Youth Services",government,"113 Main St",Bendigo,Bendigo,VIC,3550,(03) 8765 2686,services@bendigoyouthservices.com.au,https://www.bendigoyouthservices.org.au,"work_experience, psychology",true,false,Perth Council,active,-36.74777793339733,144.2835645100079
394b5781-1fc6-4194-a9fb-76c8f61d8bb1,"Bendigo Aboriginal Health Service","Dedicated apprenticeships services designed for community members living in Bendigo and surrounding areas.","Bendigo Family Services",university,"542 Main St",Bendigo,Bendigo,VIC,3550,(03) 6314 3531,services@bendigofamilyservice.org.au,https://www.bendigofamilyservice.gov.au,"apprenticeships, suicide_prevention",false,true,Data.SA,active,-36.747882635515744,144.27206234391556
7c65f02f-daf4-468b-a286-57aedd7a4d50,"Bendigo Youth Justice Support 26","Dedicated housing services designed for young people living in Bendigo and surrounding areas.","Headspace Bendigo",indigenous,"500 Collins St",Bendigo,Bendigo,VIC,3550,(03) 2431 4262,services@headspacebendigo.gov.au,https://www.headspacebendigo.com.au,"housing, sexual_health, education_support",true,false,Find & Connect,active,-36.7621198382228,144.2727911663301
4c468711-aee4-43d7-9662-09657d5981b3,"Bendigo Indigenous Youth Centre","Comprehensive refugee services support for young people throughout Bendigo and surrounding areas.","Bendigo YMCA",university,"950 King St",Bendigo,Bendigo,VIC,3550,(03) 3780 1539,services@bendigoymca.org.au,https://www.bendigoymca.com.au,"refugee_services",true,true,Australian Charities Register,active,-36.76276978405093,144.27460149686488
65b00f74-4e9c-43ec-a5a2-94d065b0538b,"Bendigo Youth Arts Program","Dedicated transitional housing services designed for young people living in Bendigo and surrounding areas.","Bendigo Youth Services",charity,"451 Queen St",Bendigo,Bendigo,VIC,3550,(03) 7449 1159,services@bendigoyouthservices.gov.au,https://www.bendigoyouthservices.org.au,"transitional_housing",true,false,Brisbane Council,active,-36.76330551051367,144.28079971721368
4f361af1-0a3e-4f76-89ea-dd7aa73df4f7,"Shepparton Community Legal Centre","Professional indigenous services assistance available to young people in the Shepparton and surrounding areas region.","Shepparton Council",charity,"755 King St",Shepparton,Shepparton,VIC,3630,(03) 6419 7474,info@sheppartoncouncil.org.au,https://www.sheppartoncouncil.gov.au,"indigenous_services",true,true,Data.ACT,active,-36.380028977188196,145.39337316046152
e023255f-afe6-4db1-bc1b-2cf5e7c1c974,"Shepparton Community Legal Centre 94","Professional sports recreation assistance available to young people in the Shepparton and surrounding areas region.","Shepparton Council",faith_based,"910 Bourke St",Shepparton,Shepparton,VIC,3630,(03) 4232 8913,contact@sheppartoncouncil.gov.au,https://www.sheppartoncouncil.gov.au,"sports_recreation, housing, suicide_prevention",true,false,NT Open Data,active,-36.37866542197835,145.40714519110028
4a00a9b8-bec6-4bb8-900b-e6524112f0a9,"Shepparton Youth Development Program","Dedicated work experience services designed for young people living in Shepparton and surrounding areas.","Shepparton Family Services",government,"948 Collins St",Shepparton,Shepparton,VIC,3630,(03) 4951 2028,support@sheppartonfamilyserv.org.au,https://www.sheppartonfamilyserv.gov.au,"work_experience, sports_recreation",true,false,Data.WA,active,-36.37882139127251,145.401474746591
b59dec45-8986-4aa4-9561-3e0059a2c2c5,"Shepparton Youth Health Clinic","Providing vocational education services to young people in Shepparton and surrounding areas.","Shepparton Council",non_profit,"853 Bourke St",Shepparton,Shepparton,VIC,3630,(03) 2701 1289,help@sheppartoncouncil.gov.au,https://www.sheppartoncouncil.com.au,"vocational_education, transitional_housing",true,false,Sydney Council,active,-36.37971247738273,145.3909545113073
cd500ba9-5175-416d-a042-676190020a11,"Gold Coast Emergency Relief Centre","Community-based homelessness program serving community members across Gold Coast and surrounding areas.","Gold Coast Neighbourhood Centre",hospital,"81 King St",Surfers Paradise,Gold Coast,QLD,4217,(07) 6132 4805,info@goldcoastneighbourho.org.au,https://www.goldcoastneighbourho.gov.au,"homelessness, parenting",false,false,Data.QLD,active,-28.019058200696133,153.40431453053907
bd74c868-f52c-41b5-b4c7-76b8caf07e58,"Gold Coast Employment Training Hub","Professional victim support assistance available to young people in the Gold Coast and surrounding areas region.","Gold Coast Community Centre",community,"398 King St",Surfers Paradise,Gold Coast,QLD,4217,(07) 8070 7392,help@goldcoastcommunityce.com.au,https://www.goldcoastcommunityce.gov.au,"victim_support, emergency_relief",true,false,Data.SA,active,-28.02315932720345,153.3906092183975
2a289cf9-9333-4a5b-b088-06c4aa2573ed,"Gold Coast Family Violence Service","Providing parenting services to young people in Gold Coast and surrounding areas.","Gold Coast Legal Aid",non_profit,"887 Church St",Surfers Paradise,Gold Coast,QLD,4217,(07) 2840 4084,contact@goldcoastlegalaid.gov.au,https://www.goldcoastlegalaid.gov.au,"parenting, sports_recreation, emergency_relief",true,false,Service Seeker,active,-28.013231780659147,153.40370174446255
23201f63-fccd-453e-8204-11de57d3b675,"Gold Coast Community Legal Centre","Community-based literacy program serving young people across Gold Coast and surrounding areas.","Gold Coast Aboriginal Corporation",indigenous,"744 Collins St",Surfers Paradise,Gold Coast,QLD,4217,(07) 2899 9133,help@goldcoastaboriginalc.gov.au,https://www.goldcoastaboriginalc.org.au,"literacy, mentoring, parenting",true,false,NT Open Data,active,-28.0203547609149,153.39560584782916
8cff6adb-decf-4fc7-9323-437865a02c12,"Gold Coast Youth Justice Support","Providing literacy services to young people in Gold Coast and surrounding areas.","Headspace Gold Coast",non_profit,"733 Main St",Surfers Paradise,Gold Coast,QLD,4217,(07) 6992 0810,help@headspacegoldcoast.com.au,https://www.headspacegoldcoast.gov.au,"literacy",true,false,Data.SA,active,-28.020418307206906,153.39080519414296
fa5f1e37-706b-46a8-a28f-849c1abd7c9a,"Gold Coast Youth Counselling Service","Community-based refugee services program serving young people across Gold Coast and surrounding areas.","Beyond Blue Gold Coast",indigenous,"395 Church St",Surfers Paradise,Gold Coast,QLD,4217,(07) 5720 7270,info@beyondbluegoldcoast.org.au,https://www.beyondbluegoldcoast.gov.au,"refugee_services",true,false,Service Seeker,active,-28.02439280198476,153.40502615151533
49856d95-b3a8-45e2-a790-a7f47f90cd0a,"Gold Coast Crisis Support Service","Providing family law services to community members in Gold Coast and surrounding areas.","Gold Coast Community Centre",charity,"31 Collins St",Surfers Paradise,Gold Coast,QLD,4217,(07) 3828 3144,contact@goldcoastcommunityce.org.au,https://www.goldcoastcommunityce.com.au,"family_law",false,false,Find & Connect,active,-28.02045442039628,153.40597159624338
86178542-10d5-43e7-91b5-dcf51ca41c99,"Gold Coast Community Mental Health","Providing training services to young people in Gold Coast and surrounding areas.","Headspace Gold Coast",community,"123 George St",Surfers Paradise,Gold Coast,QLD,4217,(07) 5288 5622,services@headspacegoldcoast.org.au,https://www.headspacegoldcoast.org.au,"training, homelessness",true,false,List Tasmania,active,-28.023427453446654,153.4050260569456
4c552f4c-17ce-43da-bae7-5b3072a38ff9,"Townsville Community Legal Centre","Community-based cultural support program serving young people across Townsville and surrounding areas.","Townsville Health Service",faith_based,"617 Collins St",Townsville City,Townsville,QLD,4810,(07) 1461 2739,info@townsvillehealthserv.com.au,https://www.townsvillehealthserv.gov.au,"cultural_support, court_support, psychology",true,false,Data.NSW,active,-19.251397989591403,146.81118491735373
93f72e84-71d5-4cb7-aea6-d9da2f83c18c,"Townsville Community Legal Centre 58","Community-based community development program serving young people across Townsville and surrounding areas.","Townsville Legal Aid",charity,"596 George St",Townsville City,Townsville,QLD,4810,(07) 3995 6302,info@townsvillelegalaid.gov.au,https://www.townsvillelegalaid.org.au,"community_development",true,false,Data.ACT,active,-19.249885907594752,146.82646141651495
80683240-4e7b-4fbe-8897-bb1dd21a5713,"Townsville Youth Justice Support","Community-based job placement program serving young people across Townsville and surrounding areas.","Townsville Aboriginal Corporation",university,"544 Church St",Townsville City,Townsville,QLD,4810,(07) 1261 1668,contact@townsvilleaboriginal.org.au,https://www.townsvilleaboriginal.gov.au,"job_placement",true,false,Australian Charities Register,active,-19.267311604446604,146.81865773903883
6afab360-83e5-48f6-ba28-a211e69f68ee,"Townsville Drug & Alcohol Support","Providing financial assistance services to young people in Townsville and surrounding areas.","Townsville Salvation Army",school,"899 Bourke St",Townsville City,Townsville,QLD,4810,(07) 2962 2133,contact@townsvillesalvationa.com.au,https://www.townsvillesalvationa.org.au,"financial_assistance, financial_counselling",true,true,Data.NSW,active,-19.25425340670129,146.82321911863494
d3638e97-aa03-443b-a588-cc669abde2c5,"Townsville Youth Housing Support","Dedicated arts culture services designed for young people living in Townsville and surrounding areas.","Townsville Aboriginal Corporation",non_profit,"241 Queen St",Townsville City,Townsville,QLD,4810,(07) 7947 0586,info@townsvilleaboriginal.gov.au,https://www.townsvilleaboriginal.org.au,"arts_culture, family_mediation, parenting",true,false,Brisbane Council,active,-19.25111159980907,146.81138042308257
86fa83cb-0018-4948-a39a-c89e8956833e,"Townsville Aboriginal Health Service","Community-based job placement program serving young people across Townsville and surrounding areas.","Townsville Community Centre",government,"713 Collins St",Townsville City,Townsville,QLD,4810,(07) 9669 3768,help@townsvillecommunityc.org.au,https://www.townsvillecommunityc.gov.au,"job_placement",true,true,Data.ACT,active,-19.26799173192718,146.82101104162297
66d8c3f8-3734-4d11-a589-3b5ec9322b70,"Townsville Youth Health Clinic","Community-based career guidance program serving young people across Townsville and surrounding areas.","Townsville Health Service",school,"26 Collins St",Townsville City,Townsville,QLD,4810,(07) 3589 5769,support@townsvillehealthserv.com.au,https://www.townsvillehealthserv.gov.au,"career_guidance",true,false,Data.QLD,active,-19.261492676536335,146.81450963622905
f878c72e-2112-4826-a3b7-ffd4e1ffeb87,"Townsville Youth Legal Service","Providing transport services to young people in Townsville and surrounding areas.","Townsville Health Service",commercial,"671 Queen St",Townsville City,Townsville,QLD,4810,(07) 1863 2554,support@townsvillehealthserv.gov.au,https://www.townsvillehealthserv.org.au,"transport, domestic_violence",true,true,List Tasmania,active,-19.254310813293024,146.81786338355062
468cdb9f-0b2c-4084-badf-b085eb14c835,"Cairns Youth Arts Program","Comprehensive sports recreation support for young people throughout Cairns and surrounding areas.","Cairns Salvation Army",non_profit,"305 Bourke St",Cairns City,Cairns,QLD,4870,(07) 7324 5505,help@cairnssalvationarmy.com.au,https://www.cairnssalvationarmy.gov.au,"sports_recreation, homelessness",true,false,Data.SA,active,-16.924863291610237,145.76965781725582
423fd801-969d-48d2-8e76-a4038378835e,"Cairns Youth Counselling Service","Providing crisis accommodation services to young people in Cairns and surrounding areas.","Lifeline Cairns",charity,"344 Church St",Cairns City,Cairns,QLD,4870,(07) 3824 5381,services@lifelinecairns.org.au,https://www.lifelinecairns.gov.au,"crisis_accommodation, job_placement, literacy",true,false,Service Seeker,active,-16.922700874863942,145.78468071816113
a5ea2580-aec6-41c5-86ad-b42a3ed0e474,"Cairns Youth Mentoring Program","Comprehensive arts culture support for young people throughout Cairns and surrounding areas.","Cairns Legal Aid",hospital,"694 King St",Cairns City,Cairns,QLD,4870,(07) 6238 1061,contact@cairnslegalaid.gov.au,https://www.cairnslegalaid.gov.au,"arts_culture",true,false,Service Seeker,active,-16.909719413816823,145.77442874414467
07fd1a6c-8e5a-4e91-9199-f45ae0556f24,"Cairns Crisis Support Service","Dedicated court support services designed for community members living in Cairns and surrounding areas.","Cairns Mission Australia",school,"789 Bourke St",Cairns City,Cairns,QLD,4870,(07) 1088 1205,info@cairnsmissionaustral.com.au,https://www.cairnsmissionaustral.gov.au,"court_support, homelessness, education_support",false,false,Data.WA,active,-16.90958780779659,145.76955787084626
b45e502f-ab4c-487a-8fed-9ecff8f4fcc1,"Cairns Crisis Support Service 2","Dedicated education support services designed for young people living in Cairns and surrounding areas.","Cairns Aboriginal Corporation",university,"222 Church St",Cairns City,Cairns,QLD,4870,(07) 3822 2529,help@cairnsaboriginalcorp.com.au,https://www.cairnsaboriginalcorp.gov.au,"education_support",true,false,Sydney Council,active,-16.917483393729768,145.77069104793085
2c001e64-8886-449c-82f2-9b9c3fdb29c2,"Cairns Employment Training Hub","Community-based employment program serving community members across Cairns and surrounding areas.","Cairns YMCA",university,"402 Bourke St",Cairns City,Cairns,QLD,4870,(07) 7216 6274,help@cairnsymca.com.au,https://www.cairnsymca.org.au,"employment",false,false,Perth Council,active,-16.92278435689664,145.7796638031129
e104ed36-e0ca-449b-8a1a-f7edc8a310fc,"Cairns Youth Counselling Service 42","Community-based counselling program serving young people across Cairns and surrounding areas.","Cairns Aboriginal Corporation",university,"882 Queen St",Cairns City,Cairns,QLD,4870,(07) 7435 2349,contact@cairnsaboriginalcorp.org.au,https://www.cairnsaboriginalcorp.gov.au,"counselling",true,false,Adelaide Council,active,-16.922044191411004,145.7740122635802
40e59c76-efb9-4f09-80b2-7373fec01ad4,"Cairns Youth Housing Support","Comprehensive sexual health support for young people throughout Cairns and surrounding areas.","Cairns Community Centre",government,"143 Queen St",Cairns City,Cairns,QLD,4870,(07) 6973 7015,support@cairnscommunitycentr.com.au,https://www.cairnscommunitycentr.gov.au,"sexual_health",true,false,Perth Council,active,-16.924378973879755,145.77682424645582
c0a7429b-35f9-4fa1-990e-fac7599431ce,"Toowoomba Drug & Alcohol Support","Dedicated volunteer programs services designed for young people living in Toowoomba and surrounding areas.","Lifeline Toowoomba",hospital,"448 Collins St",Toowoomba City,Toowoomba,QLD,4350,(07) 5979 1854,help@lifelinetoowoomba.com.au,https://www.lifelinetoowoomba.com.au,"volunteer_programs, employment",true,false,Find & Connect,active,-27.56716813297701,151.94655040380957
7672df89-d92b-46ee-99ec-5a120582f8cf,"Toowoomba Educational Support Centre","Professional crisis support assistance available to community members in the Toowoomba and surrounding areas region.","Toowoomba YMCA",charity,"710 Queen St",Toowoomba City,Toowoomba,QLD,4350,(07) 2495 4193,contact@toowoombaymca.org.au,https://www.toowoombaymca.com.au,"crisis_support",false,true,Find & Connect,active,-27.567842863226673,151.94106883333006
03f32b19-6b4a-4a6b-90b7-dc99665f9477,"Toowoomba Community Mental Health","Community-based multicultural program serving community members across Toowoomba and surrounding areas.","Toowoomba Aboriginal Corporation",faith_based,"128 King St",Toowoomba City,Toowoomba,QLD,4350,(07) 8521 2989,support@toowoombaaboriginalc.org.au,https://www.toowoombaaboriginalc.org.au,"multicultural, centrelink, crisis_support",false,false,Ask Izzy,active,-27.566127155419984,151.95089081679524
9093d2d9-8595-4117-a911-70e3c76a3f40,"Toowoomba Community Mental Health 90","Providing crisis support services to young people in Toowoomba and surrounding areas.","Toowoomba Health Service",faith_based,"695 King St",Toowoomba City,Toowoomba,QLD,4350,(07) 1931 9949,contact@toowoombahealthservi.com.au,https://www.toowoombahealthservi.com.au,"crisis_support",true,true,Data.SA,active,-27.564903844606018,151.95773624822115
a7bfc0d7-31bb-45b8-8aaf-6b25cba23725,"Toowoomba Indigenous Youth Centre","Professional parenting assistance available to young people in the Toowoomba and surrounding areas region.","Toowoomba Youth Services",non_profit,"441 High St",Toowoomba City,Toowoomba,QLD,4350,(07) 4514 5280,info@toowoombayouthservic.com.au,https://www.toowoombayouthservic.org.au,"parenting, indigenous_services, literacy",true,true,Sydney Council,active,-27.56214229082839,151.95787317767468
872b9c7b-c4b1-48a3-b6fd-f06980c6d871,"Toowoomba Youth Health Clinic","Dedicated mental health services designed for young people living in Toowoomba and surrounding areas.","Toowoomba Salvation Army",university,"282 Bourke St",Toowoomba City,Toowoomba,QLD,4350,(07) 5308 8567,support@toowoombasalvationar.com.au,https://www.toowoombasalvationar.gov.au,"mental_health, health_services, family_mediation",true,false,Data.SA,active,-27.56149886470226,151.957627928633
5e9c1b8d-df78-4e96-a515-fc3e45aadeb7,"Toowoomba Youth Development Program","Professional court support assistance available to young people in the Toowoomba and surrounding areas region.","Toowoomba Mission Australia",school,"761 Queen St",Toowoomba City,Toowoomba,QLD,4350,(07) 9152 3765,contact@toowoombamissionaust.gov.au,https://www.toowoombamissionaust.com.au,"court_support, mental_health, victim_support",true,false,Melbourne Council,active,-27.55555674061804,151.94306188849197
91650d45-11ac-4130-8a81-11a84fb8d23f,"Toowoomba Community Mental Health 91","Providing victim support services to community members in Toowoomba and surrounding areas.","Headspace Toowoomba",school,"290 Collins St",Toowoomba City,Toowoomba,QLD,4350,(07) 5920 2421,support@headspacetoowoomba.gov.au,https://www.headspacetoowoomba.com.au,"victim_support",false,true,Perth Council,active,-27.56920854247869,151.94442160320665
4d40532c-0c04-4dab-a7e0-7b9d8d8d7620,"Rockhampton Youth Legal Service","Providing court support services to young people in Rockhampton and surrounding areas.","Rockhampton Youth Services",hospital,"74 Queen St",Rockhampton City,Rockhampton,QLD,4700,(07) 4211 1103,help@rockhamptonyouthserv.org.au,https://www.rockhamptonyouthserv.gov.au,"court_support",true,false,Data.ACT,active,-23.38361749183598,150.5067312894988
e1e51d86-cac2-48a0-943b-b1b1bb7143cf,"Rockhampton Youth Arts Program","Comprehensive court support support for young people throughout Rockhampton and surrounding areas.","Rockhampton Community Centre",commercial,"816 George St",Rockhampton City,Rockhampton,QLD,4700,(07) 8834 2683,contact@rockhamptoncommunity.gov.au,https://www.rockhamptoncommunity.gov.au,"court_support, community_service, arts_culture",true,false,Brisbane Council,active,-23.39070874242204,150.51579178137456
c04b6e25-3af1-4c80-bc73-2a5806c96ef1,"Rockhampton Youth Development Program","Professional multicultural assistance available to young people in the Rockhampton and surrounding areas region.","Lifeline Rockhampton",indigenous,"527 George St",Rockhampton City,Rockhampton,QLD,4700,(07) 5346 6073,info@lifelinerockhampton.com.au,https://www.lifelinerockhampton.org.au,"multicultural, transitional_housing, family_support",true,true,Melbourne Council,active,-23.37509684436618,150.50459843804853
58f6fc9b-d900-4f94-a228-fb92e43f7b10,"Rockhampton Youth Health Clinic","Providing apprenticeships services to young people in Rockhampton and surrounding areas.","Rockhampton Community Centre",government,"219 Main St",Rockhampton City,Rockhampton,QLD,4700,(07) 9110 2590,contact@rockhamptoncommunity.org.au,https://www.rockhamptoncommunity.org.au,"apprenticeships, suicide_prevention, youth_development",true,true,Find & Connect,active,-23.386739248838158,150.50608783146285
92c90c1c-dbf2-4000-ac17-0966a27cde81,"Rockhampton Emergency Relief Centre","Comprehensive financial counselling support for community members throughout Rockhampton and surrounding areas.","Rockhampton Aboriginal Corporation",community,"216 High St",Rockhampton City,Rockhampton,QLD,4700,(07) 7839 8267,info@rockhamptonaborigina.com.au,https://www.rockhamptonaborigina.org.au,"financial_counselling",false,false,Brisbane Council,active,-23.379852679098867,150.51729559161566
9949e6f8-19d9-4632-bd38-3f5bf60469aa,"Rockhampton Community Mental Health","Comprehensive arts culture support for young people throughout Rockhampton and surrounding areas.","Rockhampton Legal Aid",hospital,"581 Bourke St",Rockhampton City,Rockhampton,QLD,4700,(07) 7861 8376,support@rockhamptonlegalaid.com.au,https://www.rockhamptonlegalaid.gov.au,"arts_culture, financial_assistance",true,false,NT Open Data,active,-23.378454679178915,150.50031570667775
5f407f4a-08cc-4d15-8a93-834208977a45,"Rockhampton Youth Health Clinic 72","Comprehensive emergency relief support for young people throughout Rockhampton and surrounding areas.","Rockhampton Aboriginal Corporation",non_profit,"952 George St",Rockhampton City,Rockhampton,QLD,4700,(07) 7182 5887,services@rockhamptonaborigina.org.au,https://www.rockhamptonaborigina.org.au,"emergency_relief, multicultural",true,true,Sydney Council,active,-23.373711071505134,150.51076993046618
5863c1c0-d800-4fb8-bc1d-9089806409cd,"Rockhampton Youth Development Program 18","Comprehensive drug alcohol support for young people throughout Rockhampton and surrounding areas.","Rockhampton Family Services",indigenous,"808 Main St",Rockhampton City,Rockhampton,QLD,4700,(07) 1442 1525,support@rockhamptonfamilyser.org.au,https://www.rockhamptonfamilyser.org.au,"drug_alcohol, medical",true,true,Data.gov.au,active,-23.390006043158728,150.51663087053828
1c4d75c7-97e0-4399-b2d8-7d14180d8ec4,"Bundaberg Homeless Youth Outreach","Comprehensive mental health support for young people throughout Bundaberg and surrounding areas.","Bundaberg Salvation Army",faith_based,"508 Main St",Bundaberg Central,Bundaberg,QLD,4670,(07) 1235 2040,info@bundabergsalvationar.org.au,https://www.bundabergsalvationar.gov.au,"mental_health, medical, centrelink",true,true,Data.NSW,active,-24.86538038299115,152.35188224823446
deff9c4b-30e5-46b2-bcc7-b3edd49dbc82,"Bundaberg Homeless Youth Outreach 91","Comprehensive medical support for young people throughout Bundaberg and surrounding areas.","Bundaberg Youth Services",school,"904 Bourke St",Bundaberg Central,Bundaberg,QLD,4670,(07) 2364 1375,services@bundabergyouthservic.gov.au,https://www.bundabergyouthservic.org.au,"medical",true,true,NT Open Data,active,-24.868488308837968,152.34397977127708
937a616c-c9cb-4479-96b8-d3277ceec83e,"Bundaberg Youth Justice Support","Professional youth development assistance available to young people in the Bundaberg and surrounding areas region.","Bundaberg YMCA",commercial,"279 Main St",Bundaberg Central,Bundaberg,QLD,4670,(07) 9338 6021,contact@bundabergymca.com.au,https://www.bundabergymca.com.au,"youth_development, mentoring, legal_aid",true,false,Data.ACT,active,-24.85896494300671,152.34892414723976
55d5b078-2dd3-47c2-8798-499b14b5c0b2,"Bundaberg Multicultural Youth Services","Professional financial assistance assistance available to young people in the Bundaberg and surrounding areas region.","Bundaberg YMCA",charity,"613 Church St",Bundaberg Central,Bundaberg,QLD,4670,(07) 7762 2274,contact@bundabergymca.gov.au,https://www.bundabergymca.gov.au,"financial_assistance, mental_health",true,false,Data.QLD,active,-24.857744485005643,152.34950015110658
ec513e81-0b02-4603-89ab-72341a3b3c35,"Fremantle Youth Legal Service","Dedicated financial assistance services designed for young people living in Fremantle and surrounding areas.","Fremantle YMCA",indigenous,"498 High St",Fremantle,Fremantle,WA,6160,(08) 3422 8120,services@fremantleymca.com.au,https://www.fremantleymca.gov.au,"financial_assistance, mental_health, court_support",true,false,Adelaide Council,active,-32.06161690764619,115.73790537627667
28ad7fc8-57fb-4b8d-b3d4-1077a47a215a,"Fremantle Indigenous Youth Centre","Providing apprenticeships services to young people in Fremantle and surrounding areas.","Fremantle Salvation Army",commercial,"827 Church St",Fremantle,Fremantle,WA,6160,(08) 2282 9162,info@fremantlesalvationar.com.au,https://www.fremantlesalvationar.gov.au,"apprenticeships",true,true,Data.ACT,active,-32.052539049070255,115.75179795395687
da6f9188-17af-4fb1-9174-46a3845a874a,"Fremantle Homeless Youth Outreach","Comprehensive job placement support for young people throughout Fremantle and surrounding areas.","Fremantle Health Service",hospital,"227 Collins St",Fremantle,Fremantle,WA,6160,(08) 3434 9901,services@fremantlehealthservi.gov.au,https://www.fremantlehealthservi.gov.au,"job_placement, leadership",true,false,Data.QLD,active,-32.064446088903814,115.75102103529589
dd545f8e-9b20-4088-b938-4785d66c5322,"Fremantle Educational Support Centre","Providing multicultural services to young people in Fremantle and surrounding areas.","Fremantle Community Centre",non_profit,"924 High St",Fremantle,Fremantle,WA,6160,(08) 4996 7429,help@fremantlecommunityce.com.au,https://www.fremantlecommunityce.com.au,"multicultural",true,false,Data.VIC,active,-32.04997190452854,115.73532005558998
633a7031-c57b-4553-9128-fe3caf34c632,"Fremantle Youth Arts Program","Dedicated transport services designed for young people living in Fremantle and surrounding areas.","Fremantle Legal Aid",indigenous,"858 George St",Fremantle,Fremantle,WA,6160,(08) 1741 9494,info@fremantlelegalaid.com.au,https://www.fremantlelegalaid.com.au,"transport, victim_support, emergency_relief",true,false,Data.ACT,active,-32.05243667860377,115.74351824670114
bc22c6c7-5764-4c47-86c2-c3199d1484e7,"Fremantle Community Mental Health","Providing volunteer programs services to young people in Fremantle and surrounding areas.","Fremantle Mission Australia",charity,"363 High St",Fremantle,Fremantle,WA,6160,(08) 5483 6103,contact@fremantlemissionaust.com.au,https://www.fremantlemissionaust.com.au,"volunteer_programs, legal_aid",true,false,Data.ACT,active,-32.06161505333891,115.73758825771607
367f564d-c45c-42be-a2ad-2a8c2378728f,"Fremantle Youth Housing Support","Providing multicultural services to young people in Fremantle and surrounding areas.","Fremantle Community Centre",faith_based,"172 Church St",Fremantle,Fremantle,WA,6160,(08) 7025 0888,help@fremantlecommunityce.com.au,https://www.fremantlecommunityce.com.au,"multicultural",true,false,Sydney Council,active,-32.059257972128755,115.74910662339012
e2998397-c2fb-446d-a1c2-63e713a5f257,"Fremantle Youth Health Clinic","Providing training services to young people in Fremantle and surrounding areas.","Fremantle Community Centre",non_profit,"295 Collins St",Fremantle,Fremantle,WA,6160,(08) 9350 4352,info@fremantlecommunityce.gov.au,https://www.fremantlecommunityce.org.au,"training",true,false,NT Open Data,active,-32.06190074057908,115.73420214928169
9e06764f-737e-4de2-8ab4-b7c5ab3e246d,"Bunbury Emergency Relief Centre","Community-based financial counselling program serving community members across Bunbury and surrounding areas.","Bunbury Mission Australia",community,"497 Church St",Bunbury,Bunbury,WA,6230,(08) 8465 0316,help@bunburymissionaustra.org.au,https://www.bunburymissionaustra.com.au,"financial_counselling, medical, mentoring",false,false,Data.VIC,active,-33.32570417698862,115.6391984864614
57b5e33b-6a1d-4231-80df-428123a3b38a,"Bunbury Multicultural Youth Services","Comprehensive work experience support for young people throughout Bunbury and surrounding areas.","Bunbury YMCA",commercial,"746 Queen St",Bunbury,Bunbury,WA,6230,(08) 2356 8237,services@bunburyymca.org.au,https://www.bunburyymca.org.au,"work_experience",true,false,NT Open Data,active,-33.3353798699119,115.64543559767378
4ab2af64-6e54-4599-a92a-bc9bf45a1e3a,"Bunbury Youth Counselling Service","Dedicated refugee services services designed for young people living in Bunbury and surrounding areas.","Headspace Bunbury",university,"822 Collins St",Bunbury,Bunbury,WA,6230,(08) 3828 9566,contact@headspacebunbury.gov.au,https://www.headspacebunbury.org.au,"refugee_services",true,false,Data.ACT,active,-33.3231133655838,115.64809278540409
a3094c2c-ce0b-4f5f-a036-54ee7c0e27a5,"Bunbury Employment Training Hub","Providing sports recreation services to young people in Bunbury and surrounding areas.","Bunbury Aboriginal Corporation",indigenous,"759 King St",Bunbury,Bunbury,WA,6230,(08) 8477 4291,services@bunburyaboriginalcor.gov.au,https://www.bunburyaboriginalcor.com.au,"sports_recreation, community_development, mentoring",true,false,List Tasmania,active,-33.33179137832422,115.6448806016041
639a4b3a-62af-4140-bf19-b07f05ed9c16,"Bunbury Homeless Youth Outreach","Professional mentoring assistance available to young people in the Bunbury and surrounding areas region.","Bunbury Salvation Army",hospital,"648 Collins St",Bunbury,Bunbury,WA,6230,(08) 6653 3426,support@bunburysalvationarmy.org.au,https://www.bunburysalvationarmy.gov.au,"mentoring, training",true,false,List Tasmania,active,-33.32217961667026,115.64409501568895
b47dbf71-65b4-45bd-a6d6-0852dee362c9,"Bunbury Community Legal Centre","Dedicated leadership services designed for young people living in Bunbury and surrounding areas.","Bunbury Youth Services",non_profit,"52 George St",Bunbury,Bunbury,WA,6230,(08) 5711 5779,support@bunburyyouthservices.com.au,https://www.bunburyyouthservices.com.au,"leadership, transport",true,true,Brisbane Council,active,-33.32923484168369,115.63380979356722
e8210300-944d-4bc9-b240-c1df334075e4,"Bunbury Family Violence Service","Community-based youth development program serving young people across Bunbury and surrounding areas.","Bunbury Health Service",faith_based,"312 High St",Bunbury,Bunbury,WA,6230,(08) 1625 2674,contact@bunburyhealthservice.com.au,https://www.bunburyhealthservice.gov.au,"youth_development",true,false,Melbourne Council,active,-33.33073223947893,115.64910153150379
94913b26-450b-4a07-8793-3ef0cbaf884f,"Bunbury Indigenous Youth Centre","Comprehensive mental health support for young people throughout Bunbury and surrounding areas.","Lifeline Bunbury",government,"711 King St",Bunbury,Bunbury,WA,6230,(08) 7552 1917,contact@lifelinebunbury.org.au,https://www.lifelinebunbury.org.au,"mental_health, suicide_prevention, cultural_support",true,true,Data.WA,active,-33.328411231792316,115.63500718009301
46649523-e915-44b8-aad9-77d7dccbcfb0,"Geraldton Youth Development Program","Professional emergency relief assistance available to young people in the Geraldton and surrounding areas region.","Geraldton Family Services",university,"109 George St",Geraldton,Geraldton,WA,6530,(08) 8122 5732,support@geraldtonfamilyservi.org.au,https://www.geraldtonfamilyservi.com.au,"emergency_relief, domestic_violence, literacy",true,false,Data.NSW,active,-28.780609039242048,114.62325180096371
21fc7b78-a67f-4d36-8821-4d970cb21350,"Geraldton Emergency Relief Centre","Dedicated parenting services designed for young people living in Geraldton and surrounding areas.","Geraldton Family Services",school,"494 George St",Geraldton,Geraldton,WA,6530,(08) 4274 9468,info@geraldtonfamilyservi.org.au,https://www.geraldtonfamilyservi.gov.au,"parenting",true,false,Data.gov.au,active,-28.777504190058444,114.62633423700692
721bdf98-6c38-43f5-8604-e6d9d263f425,"Geraldton Emergency Relief Centre 1","Providing transitional housing services to young people in Geraldton and surrounding areas.","Geraldton Salvation Army",university,"363 George St",Geraldton,Geraldton,WA,6530,(08) 2511 7760,info@geraldtonsalvationar.com.au,https://www.geraldtonsalvationar.org.au,"transitional_housing, multicultural",true,true,Data.ACT,active,-28.78177934195447,114.63024012956112
372754b2-d23b-4e71-9c85-f3e76ee4dae0,"Geraldton Crisis Support Service","Providing dental services to community members in Geraldton and surrounding areas.","Geraldton Community Centre",school,"116 Bourke St",Geraldton,Geraldton,WA,6530,(08) 1599 5601,help@geraldtoncommunityce.org.au,https://www.geraldtoncommunityce.org.au,"dental, training, financial_assistance",false,false,Data.QLD,active,-28.77041866103526,114.63227352020931
57ca4824-2376-42c1-819b-8be61dc4a704,"Kalgoorlie Youth Development Program","Providing mental health services to young people in Kalgoorlie and surrounding areas.","Kalgoorlie Aboriginal Corporation",charity,"908 George St",Kalgoorlie,Kalgoorlie,WA,6430,(08) 9649 0621,services@kalgoorlieaboriginal.org.au,https://www.kalgoorlieaboriginal.gov.au,"mental_health, legal_aid",true,false,Data.NSW,active,-30.737913994603712,121.46185217593707
5dad6c3a-7428-402c-8d38-769ac9eed598,"Kalgoorlie Youth Housing Support","Providing health services services to young people in Kalgoorlie and surrounding areas.","Kalgoorlie Youth Services",charity,"519 Collins St",Kalgoorlie,Kalgoorlie,WA,6430,(08) 2896 6943,help@kalgoorlieyouthservi.gov.au,https://www.kalgoorlieyouthservi.com.au,"health_services, career_guidance",true,true,NT Open Data,active,-30.734585929805462,121.47411816015703
4234f2c2-6992-45f6-a986-3444060dfac9,"Kalgoorlie Youth Health Clinic","Professional training assistance available to young people in the Kalgoorlie and surrounding areas region.","Kalgoorlie Community Centre",indigenous,"975 Queen St",Kalgoorlie,Kalgoorlie,WA,6430,(08) 3450 3709,services@kalgoorliecommunityc.org.au,https://www.kalgoorliecommunityc.gov.au,"training, family_law, psychology",true,false,Adelaide Council,active,-30.741280760184292,121.46561117226652
a680ed49-1eac-417a-b41a-4c7af16ee36e,"Kalgoorlie Youth Development Program 1","Dedicated centrelink services designed for young people living in Kalgoorlie and surrounding areas.","Kalgoorlie Legal Aid",hospital,"111 King St",Kalgoorlie,Kalgoorlie,WA,6430,(08) 1893 2884,contact@kalgoorlielegalaid.com.au,https://www.kalgoorlielegalaid.gov.au,"centrelink, victim_support",true,false,Data.WA,active,-30.731774043430466,121.46938437993053
147189f5-3182-4d25-a416-ff2ae488c75b,"Mount Gambier Youth Health Clinic","Community-based career guidance program serving young people across Mount Gambier and surrounding areas.","Mount Gambier Legal Aid",community,"615 Collins St",Mount Gambier,Mount Gambier,SA,5290,(08) 3382 1813,help@mountgambierlegalaid.org.au,https://www.mountgambierlegalaid.gov.au,"career_guidance, education_support",true,false,Data.VIC,active,-37.82654901182443,140.77865775798747
ae057510-ab93-46e3-99a9-f727c95bddfa,"Mount Gambier Educational Support Centre","Providing work experience services to young people in Mount Gambier and surrounding areas.","Mount Gambier Mission Australia",non_profit,"404 High St",Mount Gambier,Mount Gambier,SA,5290,(08) 7999 1103,contact@mountgambiermissiona.gov.au,https://www.mountgambiermissiona.gov.au,"work_experience",true,false,Sydney Council,active,-37.83609737081862,140.78403455749088
a7ba2f18-69ed-4ac6-84c8-4966ed14ecda,"Mount Gambier Youth Counselling Service","Professional emergency relief assistance available to young people in the Mount Gambier and surrounding areas region.","Mount Gambier Council",indigenous,"992 High St",Mount Gambier,Mount Gambier,SA,5290,(08) 4075 9815,support@mountgambiercouncil.gov.au,https://www.mountgambiercouncil.gov.au,"emergency_relief, community_development, psychology",true,false,Brisbane Council,active,-37.83465371796614,140.78985993435762
54f4a66e-c4ee-439a-bc47-4a0f2cca770c,"Mount Gambier Multicultural Youth Services","Providing multicultural services to young people in Mount Gambier and surrounding areas.","Beyond Blue Mount Gambier",indigenous,"490 Main St",Mount Gambier,Mount Gambier,SA,5290,(08) 9876 4728,support@beyondbluemountgambi.com.au,https://www.beyondbluemountgambi.com.au,"multicultural",true,false,Data.QLD,active,-37.83303982793692,140.78863010376836
b978b003-e380-447e-8b5b-7d4ada2ec521,"Whyalla Educational Support Centre","Professional cultural support assistance available to young people in the Whyalla and surrounding areas region.","Whyalla Youth Services",community,"53 King St",Whyalla,Whyalla,SA,5600,(08) 8063 5317,contact@whyallayouthservices.org.au,https://www.whyallayouthservices.com.au,"cultural_support, vocational_education, medical",true,false,Ask Izzy,active,-33.019485716960645,137.5919526572628
b48eaaaa-674f-42df-a5f6-ce6f97426ede,"Whyalla Employment Training Hub","Providing cultural support services to community members in Whyalla and surrounding areas.","Whyalla Health Service",university,"84 King St",Whyalla,Whyalla,SA,5600,(08) 3179 0617,support@whyallahealthservice.gov.au,https://www.whyallahealthservice.com.au,"cultural_support",false,true,Service Seeker,active,-33.035826237641345,137.5814354930646
2882e239-36c0-4a7e-a1a7-92380644eb02,"Whyalla Multicultural Youth Services","Dedicated parenting services designed for young people living in Whyalla and surrounding areas.","Whyalla Community Centre",government,"433 High St",Whyalla,Whyalla,SA,5600,(08) 9484 4107,services@whyallacommunitycent.com.au,https://www.whyallacommunitycent.gov.au,"parenting",true,false,Data.QLD,active,-33.02850540287757,137.57673704208275
3a56b049-79f0-4fb6-bfda-077a5b819a61,"Whyalla Youth Legal Service","Providing job placement services to young people in Whyalla and surrounding areas.","Whyalla Community Centre",charity,"552 Bourke St",Whyalla,Whyalla,SA,5600,(08) 1764 6120,help@whyallacommunitycent.org.au,https://www.whyallacommunitycent.org.au,"job_placement, volunteer_programs, drug_alcohol",true,false,Adelaide Council,active,-33.02767038988647,137.58593920929758
f4764df3-8006-4064-9291-7de1ca8ab72e,"Launceston Family Violence Service","Comprehensive court support support for young people throughout Launceston and surrounding areas.","Launceston YMCA",government,"361 George St",Launceston,Launceston,TAS,7250,(03) 4342 4862,services@launcestonymca.com.au,https://www.launcestonymca.com.au,"court_support, financial_assistance",true,false,Adelaide Council,active,-41.42693232548562,147.14853057200426
a68c9140-2c23-4a78-82cb-016af4b741a8,"Launceston Family Violence Service 39","Comprehensive education support support for young people throughout Launceston and surrounding areas.","Launceston Salvation Army",non_profit,"154 High St",Launceston,Launceston,TAS,7250,(03) 1766 1776,services@launcestonsalvationa.gov.au,https://www.launcestonsalvationa.gov.au,"education_support, literacy, youth_development",true,false,Service Seeker,active,-41.442555576189974,147.1341913137104
0b770f78-5e6c-46a9-b5b8-4b7cf33d3772,"Launceston Youth Mentoring Program","Providing multicultural services to young people in Launceston and surrounding areas.","Launceston Legal Aid",commercial,"984 Collins St",Launceston,Launceston,TAS,7250,(03) 8691 2680,help@launcestonlegalaid.com.au,https://www.launcestonlegalaid.gov.au,"multicultural",true,false,Australian Charities Register,active,-41.427712243856185,147.14657767211483
5b3c3015-4808-4426-aff7-86277e7de3aa,"Launceston Community Mental Health","Community-based victim support program serving community members across Launceston and surrounding areas.","Launceston Mission Australia",commercial,"492 Main St",Launceston,Launceston,TAS,7250,(03) 6660 9297,contact@launcestonmissionaus.com.au,https://www.launcestonmissionaus.gov.au,"victim_support",false,false,NT Open Data,active,-41.43337169590486,147.13842668940038
d78e3347-af0d-4c46-ba9e-5d335503fd9c,"Launceston Community Legal Centre","Comprehensive cultural support support for young people throughout Launceston and surrounding areas.","Lifeline Launceston",community,"164 Queen St",Launceston,Launceston,TAS,7250,(03) 9809 7345,info@lifelinelaunceston.org.au,https://www.lifelinelaunceston.org.au,"cultural_support",true,true,List Tasmania,active,-41.441119336656755,147.14864291198273
fbc9cec1-b093-41bd-b77a-5de56cdb9fab,"Launceston Youth Arts Program","Dedicated centrelink services designed for young people living in Launceston and surrounding areas.","Launceston Aboriginal Corporation",faith_based,"193 Main St",Launceston,Launceston,TAS,7250,(03) 9097 2734,help@launcestonaboriginal.gov.au,https://www.launcestonaboriginal.gov.au,"centrelink",true,false,Australian Charities Register,active,-41.4328161013787,147.1409878462488
08d59e7a-2e0b-489f-ac20-74a2fc1411cd,"Launceston Youth Housing Support","Community-based psychology program serving young people across Launceston and surrounding areas.","Launceston Council",commercial,"426 Church St",Launceston,Launceston,TAS,7250,(03) 3801 1277,help@launcestoncouncil.com.au,https://www.launcestoncouncil.org.au,"psychology, court_support, transport",true,false,Data.ACT,active,-41.43520671101198,147.13769609836018
f42610a0-b343-493e-a1fb-e0e095badf24,"Launceston Youth Health Clinic","Comprehensive psychology support for young people throughout Launceston and surrounding areas.","Beyond Blue Launceston",university,"979 Bourke St",Launceston,Launceston,TAS,7250,(03) 6733 6177,support@beyondbluelaunceston.com.au,https://www.beyondbluelaunceston.gov.au,"psychology, emergency_relief",true,false,Perth Council,active,-41.4326977448865,147.15210666381125
b6864f5d-687d-4a0b-951b-bc0018eee5e3,"Devonport Youth Counselling Service","Community-based vocational education program serving young people across Devonport and surrounding areas.","Devonport YMCA",hospital,"342 Bourke St",Devonport,Devonport,TAS,7310,(03) 6399 3365,contact@devonportymca.org.au,https://www.devonportymca.org.au,"vocational_education, financial_counselling",true,false,Ask Izzy,active,-41.19015303321439,146.34068352207572
2670fbd2-ede0-4fd0-977e-744b720cc233,"Devonport Drug & Alcohol Support","Professional work experience assistance available to young people in the Devonport and surrounding areas region.","Beyond Blue Devonport",charity,"318 Main St",Devonport,Devonport,TAS,7310,(03) 4194 4020,contact@beyondbluedevonport.gov.au,https://www.beyondbluedevonport.org.au,"work_experience, domestic_violence",true,false,NT Open Data,active,-41.18744455295091,146.35533277064425
8999ac74-844c-45af-9a0d-84ba524029c5,"Devonport Youth Health Clinic","Dedicated victim support services designed for young people living in Devonport and surrounding areas.","Devonport Family Services",government,"700 Bourke St",Devonport,Devonport,TAS,7310,(03) 8658 2921,support@devonportfamilyservi.org.au,https://www.devonportfamilyservi.gov.au,"victim_support, volunteer_programs, community_service",true,false,Data.gov.au,active,-41.19643000839173,146.34252094042904
c77fe287-7589-4289-8bda-74217801bd61,"Devonport Indigenous Youth Centre","Professional apprenticeships assistance available to young people in the Devonport and surrounding areas region.","Devonport Council",charity,"847 Queen St",Devonport,Devonport,TAS,7310,(03) 5700 4055,info@devonportcouncil.gov.au,https://www.devonportcouncil.gov.au,"apprenticeships, leadership, cultural_support",true,true,Data.WA,active,-41.18778516952069,146.35308565466443